{"type":"FeatureCollection","_derived":{"from":"bc300.geojson","by":"scripts/build-bc221.mjs","note":"上流に紀元前221年の断面が無いため、紀元前300年の秦と戦国六国を結合した近似。座標は上流のまま。百越(前214年)とオルドス(前215年ごろ)は含まない。"},"features":[{"type":"Feature","geometry":{"type":"MultiPolygon","coordinates":[[[[101.651,29.532],[102.132,28.023],[105.232,27.999],[107.133,28.675],[114.97,26.009],[117.176,25.259],[118.474,26.625],[119.601,26.693],[121.359,28.386],[121.77,29.834],[121.606,31.828],[120.661,32.543],[119.974,34.135],[119.021,34.692],[120.139,36.195],[121.847,36.86],[120.658,37.736],[119.599,37.117],[118.875,37.949],[117.589,38.284],[117.753,39.203],[118.978,39.224],[121.011,40.851],[122.108,40.354],[122.027,39.256],[124.104,39.885],[124.091,41.267],[122.5,41.81],[118.546,41.425],[113.318,41.596],[109.083,42.118],[107.622,42.09],[107.036,40.704],[106.798,39.139],[106.043,37.561],[104.396,37.218],[104.739,36.6],[103.62,34.039],[101.651,29.532]]]]},"properties":{"NAME":"Qin","SUBJECTO":"Qin","BORDERPRECISION":1}},{"type":"Feature","geometry":{"type":"Polygon","coordinates":[[[120.622,21.925],[120.696,21.971],[120.049,23.061],[120.674,24.551],[120.021,23.62],[119.964,23.086],[120.113,22.642],[120.622,21.925]]]},"properties":{"NAME":null,"SUBJECTO":null,"BORDERPRECISION":1}},{"type":"Feature","geometry":{"type":"MultiPolygon","coordinates":[[[[120.364,14.531],[121.009,13.656],[121.729,14.108],[121.242,15.308],[122.396,17.114],[122.028,18.009],[121.036,18.528],[120.393,18.044],[120.303,16.417],[119.772,15.47],[120.364,14.531]]],[[[121.873,10.468],[122.897,11.15],[121.994,11.758],[121.873,10.468]]],[[[126.045,6.608],[126.272,8.426],[125.934,9.175],[123.465,7.791],[124.224,6.09],[125.073,5.723],[125.28,6.594],[126.045,6.608]]]]},"properties":{"NAME":null,"SUBJECTO":null,"BORDERPRECISION":1}},{"type":"Feature","geometry":{"type":"MultiPolygon","coordinates":[[[[175.308,-37.321],[174.217,-35.337],[173.166,-35.421],[174.765,-37.297],[174.655,-38.983],[173.805,-39.42],[175.354,-40.3],[176.011,-41.255],[177.157,-39.854],[178.408,-38.771],[177.528,-38.204],[175.308,-37.321]]],[[[172.063,-43.923],[174.234,-42.011],[173.264,-41.544],[171.458,-41.993],[171.024,-42.887],[168.416,-44.221],[167.137,-45.2],[166.523,-46.233],[169.399,-46.71],[170.612,-45.946],[171.378,-44.338],[172.063,-43.923]]]]},"properties":{"NAME":null,"SUBJECTO":null,"BORDERPRECISION":1}},{"type":"Feature","geometry":{"type":"Polygon","coordinates":[[[-24.219,65.534],[-21.955,65.378],[-22.373,63.773],[-18.642,63.324],[-14.821,64.195],[-13.647,65.495],[-16.922,65.978],[-24.219,65.534]]]},"properties":{"NAME":null,"SUBJECTO":null,"BORDERPRECISION":1}},{"type":"Feature","geometry":{"type":"MultiPolygon","coordinates":[[[[146.713,-43.722],[147.815,-42.965],[148.27,-41.093],[146.382,-41.308],[144.776,-40.843],[145.723,-43.24],[146.713,-43.722]]],[[[142.338,-10.915],[141.679,-12.468],[141.468,-14.757],[141.711,-15.227],[140.801,-17.562],[139.248,-17.432],[135.388,-14.897],[135.831,-13.485],[136.664,-12.625],[135.445,-12.176],[133.559,-11.951],[130.463,-12.759],[129.196,-14.993],[127.963,-14.703],[126.853,-13.784],[125.863,-14.695],[125.156,-14.805],[124.425,-15.658],[124.277,-16.523],[122.738,-16.583],[122.085,-17.398],[122.196,-18.244],[120.872,-19.677],[117.597,-20.758],[116.419,-20.837],[113.625,-22.566],[113.762,-23.481],[113.433,-24.874],[114.183,-26.017],[113.433,-26.572],[113.965,-28.033],[114.63,-28.903],[115.058,-30.804],[115.747,-32.208],[115.647,-33.365],[115.047,-34.422],[116.561,-35.189],[118.207,-35.09],[119.771,-34.12],[123.623,-33.915],[124.248,-33.144],[126.059,-32.434],[127.265,-32.381],[129.185,-31.798],[131.28,-31.635],[131.993,-32.066],[133.837,-32.342],[135.153,-34.05],[135.528,-35.055],[137.457,-33.314],[139.368,-35.614],[140.012,-37.642],[140.652,-38.164],[143.365,-38.97],[144.97,-38.066],[145.934,-38.881],[146.821,-38.841],[148.037,-38.098],[149.504,-37.929],[149.985,-37.347],[150.222,-35.694],[150.762,-35.253],[151.364,-33.521],[152.176,-32.877],[152.972,-31.418],[153.493,-28.841],[152.946,-27.341],[153.069,-26.228],[151.73,-24.157],[150.802,-23.6],[150.754,-22.812],[149.557,-22.433],[149.101,-21.06],[148.19,-20.172],[146.322,-19.082],[145.869,-17.195],[145.326,-16.49],[145.184,-15.048],[143.743,-14.466],[143.173,-12.121],[142.338,-10.915]]]]},"properties":{"NAME":"Australian aboriginal hunter-gatherers","SUBJECTO":"Australian aboriginal hunter-gatherers","BORDERPRECISION":1}},{"type":"Feature","geometry":{"type":"Polygon","coordinates":[[[-39.695,65.187],[-35.972,65.847],[-34.433,66.384],[-32.956,67.641],[-26.964,68.502],[-22.732,69.774],[-24.585,70.304],[-27.475,70.207],[-27.606,71.068],[-25.291,71.569],[-23.754,70.59],[-21.726,71.405],[-25.073,72.634],[-24.076,73.756],[-20.33,73.42],[-19.194,75.444],[-21.183,76.697],[-18.253,77.3],[-20.777,77.969],[-20.879,78.818],[-14.202,81.21],[-22.053,81.54],[-22.432,82.743],[-32.513,83.577],[-49.648,82.478],[-61.122,81.798],[-62.811,81.156],[-63.358,78.236],[-62.449,76.338],[-58.636,75.793],[-54.73,73.038],[-55.626,71.73],[-51.72,71.59],[-50.573,69.866],[-50.539,67.488],[-49.473,67.033],[-49.062,64.786],[-47.656,62.795],[-46.133,61.759],[-46.158,60.937],[-43.72,60.004],[-44.258,61.87],[-43.848,64.206],[-42.793,65.403],[-39.695,65.187]]]},"properties":{"NAME":null,"SUBJECTO":null,"BORDERPRECISION":1}},{"type":"Feature","geometry":{"type":"MultiPolygon","coordinates":[[[[-73.112,-72.749],[-70.021,-72.672],[-68.398,-71.127],[-70.33,-68.963],[-71.798,-69.736],[-72.107,-71.05],[-75.275,-71.668],[-73.112,-72.749]]],[[[-102.551,-72.131],[-97.142,-72.672],[-97.22,-71.822],[-102.551,-72.131]]],[[[-55.185,-80.94],[-44.831,-80.322],[-44.213,-78.39],[-48.849,-78.081],[-55.185,-80.94]]],[[[169.769,-83.418],[162.015,-81.66],[159.315,-80.027],[163.643,-78.661],[162.346,-75.107],[164.616,-74.172],[168.975,-73.239],[170.729,-71.904],[167.635,-70.865],[160.599,-70.221],[157.307,-69.156],[151.093,-68.886],[146.875,-67.997],[145.586,-67.223],[141.157,-66.722],[134.205,-66.18],[130.272,-66.253],[129.01,-67.03],[122.458,-66.645],[118.286,-67.07],[113.015,-65.763],[110.607,-66.059],[109.404,-66.71],[102.631,-65.926],[99.654,-66.549],[90.855,-66.607],[85.523,-66.916],[81.814,-67.302],[78.26,-68.384],[76.869,-69.311],[72.542,-70.238],[70.301,-72.015],[67.365,-71.706],[67.513,-70.464],[68.951,-69.889],[69.374,-67.843],[62.806,-67.611],[56.627,-66.942],[55.142,-65.963],[52.452,-65.988],[48.967,-66.973],[47.305,-67.775],[44.797,-67.745],[39.647,-68.934],[38.332,-70.029],[33.541,-68.542],[32.748,-69.35],[23.707,-70.586],[17.603,-70.084],[12.658,-70.315],[10.34,-70.702],[8.485,-70.084],[0.681,-71.32],[-4.882,-71.281],[-7.2,-70.895],[-11.141,-71.59],[-11.828,-72.323],[-16.396,-73.445],[-14.451,-74.065],[-17.168,-74.758],[-18.405,-75.686],[-23.582,-75.918],[-33.163,-77.386],[-36.408,-79.163],[-29.568,-79.224],[-28.913,-80.476],[-38.031,-80.94],[-43.826,-81.79],[-60.207,-82.331],[-74.889,-80.708],[-76.589,-79.395],[-80.761,-78.236],[-74.502,-78.081],[-78.598,-76.613],[-70.562,-76.69],[-64.457,-75.686],[-61.367,-73.909],[-60.826,-72.749],[-61.676,-70.818],[-65.385,-67.341],[-61.135,-64.868],[-57.271,-63.709],[-58.121,-63.4],[-62.912,-64.713],[-66.853,-66.8],[-67.084,-68.654],[-68.784,-69.813],[-67.084,-71.822],[-67.625,-72.749],[-75.584,-73.754],[-81.766,-74.024],[-88.565,-73.252],[-99.788,-72.998],[-101.88,-74.099],[-100.045,-75.31],[-105.642,-75.068],[-110.557,-75.303],[-113.238,-74.321],[-128.978,-74.913],[-134.773,-74.643],[-140.568,-75.261],[-146.672,-76.111],[-146.146,-77.457],[-149.995,-77.733],[-154.167,-77.115],[-158.185,-77.811],[-154.554,-79.124],[-148.604,-79.665],[-145.668,-80.515],[-148.836,-81.365],[-154.477,-81.056],[-152.081,-82.601],[-153.31,-83.942],[-148.759,-85.074],[-156.563,-85.46],[-167.226,-84.765],[-180,-84.322],[-180,-85.322],[-180,-86.322],[-180,-87.322],[-180,-88.322],[-180,-89.322],[-180,-90],[-179.204,-90],[-178.204,-90],[-177.204,-90],[-176.204,-90],[-175.204,-90],[-174.204,-90],[-173.204,-90],[-172.204,-90],[-171.204,-90],[-170.204,-90],[-169.204,-90],[-168.204,-90],[-167.204,-90],[-166.204,-90],[-165.204,-90],[-164.204,-90],[-163.204,-90],[-162.204,-90],[-161.204,-90],[-160.204,-90],[-159.204,-90],[-158.204,-90],[-157.204,-90],[-156.204,-90],[-155.204,-90],[-154.204,-90],[-153.204,-90],[-152.204,-90],[-151.204,-90],[-150.204,-90],[-149.204,-90],[-148.204,-90],[-147.204,-90],[-146.204,-90],[-145.204,-90],[-144.204,-90],[-143.204,-90],[-142.204,-90],[-141.204,-90],[-140.204,-90],[-139.204,-90],[-138.204,-90],[-137.204,-90],[-136.204,-90],[-135.204,-90],[-134.204,-90],[-133.204,-90],[-132.204,-90],[-131.204,-90],[-130.204,-90],[-129.204,-90],[-128.204,-90],[-127.204,-90],[-126.204,-90],[-125.204,-90],[-124.204,-90],[-123.204,-90],[-122.204,-90],[-121.204,-90],[-120.204,-90],[-119.204,-90],[-118.204,-90],[-117.204,-90],[-116.204,-90],[-115.204,-90],[-114.204,-90],[-113.204,-90],[-112.204,-90],[-111.204,-90],[-110.204,-90],[-109.204,-90],[-108.204,-90],[-107.204,-90],[-106.204,-90],[-105.204,-90],[-104.204,-90],[-103.204,-90],[-102.204,-90],[-101.204,-90],[-100.204,-90],[-99.204,-90],[-98.204,-90],[-97.204,-90],[-96.204,-90],[-95.204,-90],[-94.204,-90],[-93.204,-90],[-92.204,-90],[-91.204,-90],[-90.204,-90],[-89.204,-90],[-88.204,-90],[-87.204,-90],[-86.204,-90],[-85.204,-90],[-84.204,-90],[-83.204,-90],[-82.204,-90],[-81.204,-90],[-80.204,-90],[-79.204,-90],[-78.204,-90],[-77.204,-90],[-76.204,-90],[-75.204,-90],[-74.204,-90],[-73.204,-90],[-72.204,-90],[-71.204,-90],[-70.204,-90],[-69.204,-90],[-68.204,-90],[-67.204,-90],[-66.204,-90],[-65.204,-90],[-64.204,-90],[-63.204,-90],[-62.204,-90],[-61.204,-90],[-60.204,-90],[-59.204,-90],[-58.204,-90],[-57.204,-90],[-56.204,-90],[-55.204,-90],[-54.204,-90],[-53.204,-90],[-52.204,-90],[-51.204,-90],[-50.204,-90],[-49.204,-90],[-48.204,-90],[-47.204,-90],[-46.204,-90],[-45.204,-90],[-44.204,-90],[-43.204,-90],[-42.204,-90],[-41.204,-90],[-40.204,-90],[-39.204,-90],[-38.204,-90],[-37.204,-90],[-36.204,-90],[-35.204,-90],[-34.204,-90],[-33.204,-90],[-32.204,-90],[-31.204,-90],[-30.204,-90],[-29.204,-90],[-28.204,-90],[-27.204,-90],[-26.204,-90],[-25.204,-90],[-24.204,-90],[-23.204,-90],[-22.204,-90],[-21.204,-90],[-20.204,-90],[-19.204,-90],[-18.204,-90],[-17.204,-90],[-16.204,-90],[-15.204,-90],[-14.204,-90],[-13.204,-90],[-12.204,-90],[-11.204,-90],[-10.204,-90],[-9.204,-90],[-8.204,-90],[-7.204,-90],[-6.204,-90],[-5.204,-90],[-4.204,-90],[-3.204,-90],[-2.204,-90],[-1.204,-90],[-0.204,-90],[0.778,-90],[1.778,-90],[2.778,-90],[3.778,-90],[4.778,-90],[5.778,-90],[6.778,-90],[7.778,-90],[8.778,-90],[9.778,-90],[10.778,-90],[11.778,-90],[12.778,-90],[13.778,-90],[14.778,-90],[15.778,-90],[16.778,-90],[17.778,-90],[18.778,-90],[19.778,-90],[20.778,-90],[21.778,-90],[22.778,-90],[23.778,-90],[24.778,-90],[25.778,-90],[26.778,-90],[27.778,-90],[28.778,-90],[29.778,-90],[30.778,-90],[31.778,-90],[32.778,-90],[33.778,-90],[34.778,-90],[35.778,-90],[36.778,-90],[37.778,-90],[38.778,-90],[39.778,-90],[40.778,-90],[41.778,-90],[42.778,-90],[43.778,-90],[44.778,-90],[45.778,-90],[46.778,-90],[47.778,-90],[48.778,-90],[49.778,-90],[50.778,-90],[51.778,-90],[52.778,-90],[53.778,-90],[54.778,-90],[55.778,-90],[56.778,-90],[57.778,-90],[58.778,-90],[59.778,-90],[60.778,-90],[61.778,-90],[62.778,-90],[63.778,-90],[64.778,-90],[65.778,-90],[66.778,-90],[67.778,-90],[68.778,-90],[69.778,-90],[70.778,-90],[71.778,-90],[72.778,-90],[73.778,-90],[74.778,-90],[75.778,-90],[76.778,-90],[77.778,-90],[78.778,-90],[79.778,-90],[80.778,-90],[81.778,-90],[82.778,-90],[83.778,-90],[84.778,-90],[85.778,-90],[86.778,-90],[87.778,-90],[88.778,-90],[89.778,-90],[89.796,-90],[90.778,-90],[91.778,-90],[92.778,-90],[93.778,-90],[94.778,-90],[95.778,-90],[96.778,-90],[97.778,-90],[98.778,-90],[99.778,-90],[100.778,-90],[101.778,-90],[102.778,-90],[103.778,-90],[104.778,-90],[105.778,-90],[106.778,-90],[107.778,-90],[108.778,-90],[109.778,-90],[110.778,-90],[111.778,-90],[112.778,-90],[113.778,-90],[114.778,-90],[115.778,-90],[116.778,-90],[117.778,-90],[118.778,-90],[119.778,-90],[120.778,-90],[121.778,-90],[122.778,-90],[123.778,-90],[124.778,-90],[125.778,-90],[126.778,-90],[127.778,-90],[128.778,-90],[129.778,-90],[130.778,-90],[131.778,-90],[132.778,-90],[133.778,-90],[134.778,-90],[135.778,-90],[136.778,-90],[137.778,-90],[138.778,-90],[139.778,-90],[140.778,-90],[141.778,-90],[142.778,-90],[143.778,-90],[144.778,-90],[145.778,-90],[146.778,-90],[147.778,-90],[148.778,-90],[149.778,-90],[150.778,-90],[151.778,-90],[152.778,-90],[153.778,-90],[154.778,-90],[155.778,-90],[156.778,-90],[157.778,-90],[158.778,-90],[159.778,-90],[160.778,-90],[161.778,-90],[162.778,-90],[163.778,-90],[164.778,-90],[165.778,-90],[166.778,-90],[167.778,-90],[168.778,-90],[169.778,-90],[170.778,-90],[171.778,-90],[172.778,-90],[173.778,-90],[174.778,-90],[175.778,-90],[176.778,-90],[177.778,-90],[178.778,-90],[180,-90],[180,-89.319],[180,-88.319],[180,-87.319],[180,-86.319],[180,-85.319],[180,-84.34],[169.769,-83.418]]]]},"properties":{"NAME":null,"SUBJECTO":null,"BORDERPRECISION":1}},{"type":"Feature","geometry":{"type":"MultiPolygon","coordinates":[[[[140.87,-2.795],[137.854,-1.614],[136.271,-2.418],[135.246,-3.539],[134.283,-2.855],[133.907,-1.006],[132.254,-0.527],[131.211,-1.025],[132.719,-2.934],[132.713,-3.888],[134.041,-3.948],[137.385,-5.123],[137.824,-5.427],[139.156,-7.725],[140.948,-9.274],[142.607,-9.377],[143.437,-8.358],[144.38,-7.758],[145.82,-8.098],[146.646,-9.279],[147.874,-10.179],[149.783,-10.41],[149.83,-9.711],[148.589,-9.16],[147.376,-7.796],[146.909,-6.895],[147.376,-6.125],[145.593,-5.423],[145.728,-4.997],[143.446,-3.61],[140.87,-2.795]]],[[[149.554,-6.406],[152.059,-5.498],[151.588,-4.902],[149.554,-6.406]]],[[[123.492,-10.352],[125.212,-9.395],[125.08,-8.772],[123.665,-9.748],[123.492,-10.352]]],[[[120.432,0.636],[119.914,0.54],[118.684,-2.901],[119.461,-3.808],[119.477,-5.804],[120.248,-5.586],[120.144,-3.076],[121.873,-4.96],[122.641,-4.284],[122.258,-3.211],[121.265,-2.101],[122.223,-1.654],[121.461,-0.989],[120.507,-1.448],[119.873,-0.465],[120.432,0.636]]]]},"properties":{"NAME":null,"SUBJECTO":null,"BORDERPRECISION":1}},{"type":"Feature","geometry":{"type":"Polygon","coordinates":[[[13.252,79.801],[11.76,78.88],[15.099,77.115],[19.116,78.455],[17.834,79.809],[13.252,79.801]]]},"properties":{"NAME":null,"SUBJECTO":null,"BORDERPRECISION":1}},{"type":"Feature","geometry":{"type":"Polygon","coordinates":[[[80.563,5.932],[81.203,6.079],[81.866,7.085],[80.662,9.299],[79.675,8.805],[79.854,7.061],[80.563,5.932]]]},"properties":{"NAME":"Simhala","SUBJECTO":"Simhala","BORDERPRECISION":1}},{"type":"Feature","geometry":{"type":"Polygon","coordinates":[[[-100.494,20.9],[-100.755,19.588],[-99.142,18.924],[-98.483,19.802],[-99.107,20.586],[-100.494,20.9]]]},"properties":{"NAME":"Teotihuacán","SUBJECTO":"Teotihuacán","BORDERPRECISION":1}},{"type":"Feature","geometry":{"type":"Polygon","coordinates":[[[-99.211,17.711],[-99.016,16.824],[-96.437,16.22],[-95.501,16.532],[-95.432,17.433],[-97.061,18.057],[-99.211,17.711]]]},"properties":{"NAME":"Monte Albán","SUBJECTO":"Monte Albán","BORDERPRECISION":1}},{"type":"Feature","geometry":{"type":"Polygon","coordinates":[[[-87.571,15.908],[-88.664,15.726],[-88.3,17.635],[-87.877,18.381],[-87.651,20.19],[-86.936,20.976],[-87.201,21.529],[-88.334,21.59],[-90.278,21.141],[-90.935,19.382],[-91.702,18.823],[-92.938,18.586],[-93.144,16.982],[-93.588,15.741],[-91.516,14.059],[-90.105,13.753],[-88.243,14.836],[-87.571,15.908]]]},"properties":{"NAME":"Maya chiefdoms and states","SUBJECTO":"Maya chiefdoms and states","BORDERPRECISION":1}},{"type":"Feature","geometry":{"type":"Polygon","coordinates":[[[-58.139,48.599],[-59.319,47.963],[-56.804,47.616],[-56.079,47.865],[-52.729,47.455],[-54.13,48.836],[-57.356,50.595],[-58.392,49.037],[-58.139,48.599]]]},"properties":{"NAME":null,"SUBJECTO":null,"BORDERPRECISION":1}},{"type":"Feature","geometry":{"type":"MultiPolygon","coordinates":[[[[56.96,73.357],[60.887,75.247],[66.548,75.98],[65.926,76.507],[59.018,75.799],[54.018,73.734],[56.96,73.357]]],[[[52.611,72.74],[51.482,71.845],[54.308,71.206],[55.518,72.478],[52.611,72.74]]]]},"properties":{"NAME":null,"SUBJECTO":null,"BORDERPRECISION":1}},{"type":"Feature","geometry":{"type":"MultiPolygon","coordinates":[[[[-92.938,18.586],[-94.242,18.24],[-96.012,18.929],[-97.504,21.189],[-97.882,22.333],[-97.822,24.143],[-100.357,23.97],[-104.224,25.116],[-107.564,27.765],[-109.937,28.204],[-110.527,27.762],[-108.013,24.981],[-105.54,22.285],[-104.948,19.438],[-103.494,18.354],[-101.993,18.027],[-101.221,17.418],[-98.856,16.597],[-97.881,16.052],[-96.333,15.75],[-95.13,16.299],[-93.588,15.741],[-93.144,16.982],[-92.938,18.586]],[[-100.494,20.9],[-99.107,20.586],[-98.483,19.802],[-99.142,18.924],[-100.755,19.588],[-100.494,20.9]],[[-99.211,17.711],[-97.061,18.057],[-95.432,17.433],[-95.501,16.532],[-96.437,16.22],[-99.016,16.824],[-99.211,17.711]]],[[[-76.024,82.531],[-78.698,83.003],[-90.503,82.007],[-82.791,80.697],[-78.566,80.992],[-76.024,82.531]]],[[[-104.62,71.093],[-105.313,72.65],[-108.986,72.73],[-111.726,72.331],[-114.647,73.355],[-116.934,72.902],[-110.347,71.197],[-104.62,71.093]]],[[[-89.272,80.389],[-92.025,81.259],[-96.433,79.933],[-92.702,78.434],[-89.121,78.344],[-86.997,79.445],[-89.272,80.389]]],[[[-123.148,74.441],[-117.686,73.215],[-117.336,74.167],[-123.148,74.441]]],[[[-116.07,76.264],[-117.397,75.407],[-112.203,74.5],[-105.773,75.23],[-105.917,76.022],[-111.386,75.66],[-116.07,76.264]]]]},"properties":{"NAME":null,"SUBJECTO":null,"BORDERPRECISION":1}},{"type":"Feature","geometry":{"type":"Polygon","coordinates":[[[42.408,13.175],[40.739,14.919],[39.518,15.463],[38.305,15.058],[37.804,14.223],[38.305,13.222],[39.557,13.055],[42.408,13.175]]]},"properties":{"NAME":"Damot","SUBJECTO":"Damot","BORDERPRECISION":1}},{"type":"Feature","geometry":{"type":"Polygon","coordinates":[[[34.551,20.183],[33.345,23.354],[32.605,22.816],[31.058,22.681],[29.847,20.125],[30,17.413],[30.268,15.536],[31.058,13.128],[31.798,12.522],[32.879,12.471],[35.384,12.804],[35.829,14.224],[35.969,15.482],[35.229,18.51],[34.551,20.183]]]},"properties":{"NAME":"Meroe","SUBJECTO":"Meroe","BORDERPRECISION":1}},{"type":"Feature","geometry":{"type":"Polygon","coordinates":[[[8.576,3.067],[8.827,3.612],[8.478,3.557],[8.576,3.067]]]},"properties":{"NAME":null,"SUBJECTO":null,"BORDERPRECISION":1}},{"type":"Feature","geometry":{"type":"MultiPolygon","coordinates":[[[[130.579,30.907],[131.319,31.511],[131.67,33.309],[130.427,33.674],[129.343,33.151],[130.579,30.907]]],[[[132.568,32.637],[134.54,34.013],[132.784,33.908],[132.121,33.348],[132.568,32.637]]],[[[136.617,34.76],[138.149,34.528],[139.423,35.166],[140.317,35.034],[140.872,37.917],[141.998,39.672],[141.153,40.865],[139.915,40.575],[140.03,39.483],[139.198,37.92],[138.317,37.206],[136.668,36.667],[135.157,35.646],[132.663,35.381],[130.899,33.904],[134.427,34.628],[135.756,33.342],[136.617,34.76]]]]},"properties":{"NAME":null,"SUBJECTO":null,"BORDERPRECISION":1}},{"type":"Feature","geometry":{"type":"Polygon","coordinates":[[[-90.105,13.753],[-87.949,13.172],[-86.014,11.368],[-85.778,10.138],[-85.089,9.583],[-83.615,9.152],[-82.956,8.257],[-81.664,8.165],[-80.814,7.27],[-79.717,8.883],[-78.547,8.746],[-78.207,9.352],[-79.5,9.638],[-80.962,8.865],[-82.23,9.047],[-83.914,11.251],[-83.662,13.705],[-83.314,14.768],[-84.65,15.933],[-87.571,15.908],[-88.243,14.836],[-90.105,13.753]]]},"properties":{"NAME":null,"SUBJECTO":null,"BORDERPRECISION":1}},{"type":"Feature","geometry":{"type":"Polygon","coordinates":[[[49.713,14.773],[48.997,17.607],[47.702,17.426],[45.433,17.775],[44.695,15.533],[43.053,14.607],[43.303,13.241],[43.841,12.664],[44.964,12.825],[48.96,14.219],[49.713,14.773]]]},"properties":{"NAME":"Qataban","SUBJECTO":"Qataban","BORDERPRECISION":1}},{"type":"Feature","geometry":{"type":"Polygon","coordinates":[[[49.713,14.773],[52.135,15.687],[52.894,16.61],[54.911,16.97],[55.29,17.676],[53.616,18.141],[48.997,17.607],[49.713,14.773]]]},"properties":{"NAME":"Hadramaut","SUBJECTO":"Hadramaut","BORDERPRECISION":1}},{"type":"Feature","geometry":{"type":"Polygon","coordinates":[[[74.421,14.375],[75.211,12.102],[76.075,10.554],[76.704,8.706],[77.9,8.258],[79.826,10.359],[79.923,12.106],[77.908,11.965],[76.879,11.347],[75.643,13.543],[74.421,14.375]]]},"properties":{"NAME":"Hindu kingdoms","SUBJECTO":"Hindu kingdoms","BORDERPRECISION":1}},{"type":"Feature","geometry":{"type":"MultiPolygon","coordinates":[[[[99.858,2.904],[98.146,4.07],[97.384,5.18],[96.187,5.146],[95.561,4.534],[96.72,3.705],[97.597,2.251],[98.601,1.707],[99.113,0.221],[99.697,-0.152],[100.65,-1.631],[100.812,-2.336],[102.462,-4.182],[104.568,-6.071],[105.728,-5.827],[105.711,-4.105],[105.943,-3.215],[104.352,-1.89],[104.298,-1.363],[103.238,-0.659],[103.722,0.015],[102.472,0.623],[101.06,2.081],[99.858,2.904]]],[[[110.968,1.226],[109.282,1.883],[108.814,0.808],[109.179,-0.869],[109.941,-1.643],[110.102,-3.079],[112.795,-2.971],[114.712,-4.206],[115.568,-3.804],[116.349,-2.417],[116.046,-1.934],[117.046,-0.935],[117.534,0.611],[118.517,1.166],[117.074,3.507],[118.391,4.374],[119.043,5.17],[116.596,6.899],[114.878,4.856],[113.815,4.263],[112.759,3.009],[111.372,2.599],[110.968,1.226]]],[[[112.678,-7.719],[112.275,-7.027],[111.045,-6.852],[108.556,-6.921],[106.945,-6.026],[106.024,-6.081],[105.633,-6.755],[106.484,-7.503],[108.16,-7.856],[109.037,-7.72],[110.778,-8.32],[112.414,-8.488],[112.678,-7.719]]]]},"properties":{"NAME":null,"SUBJECTO":null,"BORDERPRECISION":1}},{"type":"Feature","geometry":{"type":"Polygon","coordinates":[[[37.774,44.745],[39.248,45.961],[40.32,48.239],[39.784,48.776],[37.773,48.642],[35.212,46.637],[37.193,46.894],[37.97,46.441],[37.774,44.745]]]},"properties":{"NAME":"Bosporan Kingdom","SUBJECTO":"Bosporan Kingdom","BORDERPRECISION":1}},{"type":"Feature","geometry":{"type":"Polygon","coordinates":[[[11.215,43.408],[10.339,45.025],[8.925,45.092],[8.672,44.417],[9.909,44.11],[11.105,42.549],[11.215,43.408]]]},"properties":{"NAME":"Greek city-states","SUBJECTO":"Greek city-states","BORDERPRECISION":1}},{"type":"Feature","geometry":{"type":"MultiPolygon","coordinates":[[[[-0.161,39.886],[-3.337,39.231],[-7.228,37.226],[-5.661,36.008],[-4.447,36.722],[-2.239,36.728],[-0.918,37.57],[0.173,38.738],[-0.161,39.886]]],[[[8.417,39.212],[9.479,39.144],[9.794,40.564],[8.241,40.855],[8.417,39.212]]],[[[19.125,30.199],[17.422,30.996],[15.843,31.285],[15.01,32.363],[12.565,32.74],[10.413,33.631],[10.019,34.081],[11.125,35.241],[10.133,37.105],[8.637,36.885],[5.144,36.668],[1.058,36.462],[-2.035,35.055],[-4.593,35.151],[-5.929,35.728],[-6.753,34.123],[-4.011,33.302],[-1.586,33.234],[0.031,33.504],[3.4,34.447],[6.566,34.582],[7.51,34.447],[10.003,32.426],[13.439,31.146],[18.829,29.798],[19.125,30.199]]]]},"properties":{"NAME":"Carthaginian Empire","SUBJECTO":"Carthaginian Empire","BORDERPRECISION":1}},{"type":"Feature","geometry":{"type":"Polygon","coordinates":[[[16.42,41.279],[15.941,41.047],[14.899,40.241],[17.084,40.525],[16.42,41.279]]]},"properties":{"NAME":"Greek city-states","SUBJECTO":"Greek city-states","BORDERPRECISION":1}},{"type":"Feature","geometry":{"type":"Polygon","coordinates":[[[48.997,17.607],[53.616,18.141],[55.29,17.676],[56.258,17.977],[56.739,18.689],[57.839,19.035],[57.806,20.172],[58.512,20.421],[59.837,22.279],[58.628,23.458],[57.146,23.982],[56.015,25.772],[54.347,24.154],[51.586,24.003],[50.778,24.471],[49.937,25.956],[50.122,26.738],[48.855,27.523],[48.129,29.268],[47.614,29.272],[41.95,32.209],[41.138,32.833],[38.793,32.895],[37.215,32.689],[35.771,31.64],[36.806,30.317],[39.151,26.247],[37.218,25.167],[37.201,24.658],[38.329,23.835],[39.102,22.4],[39.167,21.219],[40.694,19.869],[41.629,18.047],[42.377,18.572],[43.795,18.66],[45.433,17.775],[47.702,17.426],[48.997,17.607]]]},"properties":{"NAME":null,"SUBJECTO":null,"BORDERPRECISION":1}},{"type":"Feature","geometry":{"type":"Polygon","coordinates":[[[45.433,17.775],[43.795,18.66],[42.377,18.572],[41.629,18.047],[42.764,16.645],[43.053,14.607],[44.695,15.533],[45.433,17.775]]]},"properties":{"NAME":"Saba","SUBJECTO":"Saba","BORDERPRECISION":1}},{"type":"Feature","geometry":{"type":"Polygon","coordinates":[[[79.923,12.106],[80.313,13.104],[80.089,15.175],[81.369,16.347],[83.685,18.083],[84.246,21.364],[83.153,21.706],[82.606,23.209],[81.103,23.277],[80.693,22.321],[80.625,20.135],[79.874,19.11],[79.054,18.905],[75.979,19.793],[75.911,20.681],[78.302,21.501],[77.892,22.048],[75.228,21.296],[74.34,21.706],[73.113,20.827],[72.759,20.058],[73.064,18.032],[73.841,15.39],[74.421,14.375],[75.643,13.543],[76.879,11.347],[77.908,11.965],[79.923,12.106]]]},"properties":{"NAME":"Hindu kingdoms and republics","SUBJECTO":"Hindu kingdoms and republics","BORDERPRECISION":1}},{"type":"Feature","geometry":{"type":"Polygon","coordinates":[[[117.176,25.259],[116.493,24.234],[116.452,23.25],[117.406,23.69],[118.813,24.849],[119.47,25.772],[119.601,26.693],[118.474,26.625],[117.176,25.259]]]},"properties":{"NAME":"Yue","SUBJECTO":"Yue","BORDERPRECISION":1}},{"type":"Feature","geometry":{"type":"Polygon","coordinates":[[[49.669,40.24],[47.695,40.426],[46.911,40.13],[43.391,39.345],[43.996,37.624],[44.695,36.669],[46.204,36.395],[47.92,36.6],[50.939,36.189],[51.417,36.456],[48.837,37.511],[48.825,38.31],[49.669,40.24]]]},"properties":{"NAME":"Atropatene","SUBJECTO":"Atropatene","BORDERPRECISION":1}},{"type":"Feature","geometry":{"type":"Polygon","coordinates":[[[46.911,40.13],[46.465,40.631],[44.826,40.767],[41.766,40.196],[38.404,39.401],[38.472,38.581],[39.354,38.228],[41.654,38.567],[43.391,39.345],[46.911,40.13]]]},"properties":{"NAME":"Armenia","SUBJECTO":"Armenia","BORDERPRECISION":1}},{"type":"Feature","geometry":{"type":"Polygon","coordinates":[[[44.826,40.767],[44.484,41.45],[41.68,41.793],[40.007,40.956],[41.766,40.196],[44.826,40.767]]]},"properties":{"NAME":"Colchis","SUBJECTO":"Colchis","BORDERPRECISION":1}},{"type":"Feature","geometry":{"type":"Polygon","coordinates":[[[41.766,40.196],[40.007,40.956],[38.651,40.922],[36.383,41.238],[35.958,41.686],[33.556,41.983],[30.983,41.047],[29.848,40.736],[28.478,40.395],[28.958,40.121],[31.64,39.947],[38.472,38.581],[38.404,39.401],[41.766,40.196]]]},"properties":{"NAME":"Cappadocia","SUBJECTO":"Cappadocia","BORDERPRECISION":1}},{"type":"Feature","geometry":{"type":"Polygon","coordinates":[[[-14.51,28.05],[-13.881,28.199],[-14.147,28.391],[-14.51,28.05]]]},"properties":{"NAME":"Guanches","SUBJECTO":"Guanches","BORDERPRECISION":1}},{"type":"Feature","geometry":{"type":"Polygon","coordinates":[[[-68.195,12.221],[-68.364,12.305],[-68.285,12.102],[-68.195,12.221]]]},"properties":{"NAME":null,"SUBJECTO":null,"BORDERPRECISION":1}},{"type":"Feature","geometry":{"type":"Polygon","coordinates":[[[-61.669,17.085],[-61.794,17.163],[-61.887,17.033],[-61.738,16.99],[-61.669,17.085]]]},"properties":{"NAME":null,"SUBJECTO":null,"BORDERPRECISION":1}},{"type":"Feature","geometry":{"type":"Polygon","coordinates":[[[-68.966,12.199],[-69.078,12.349],[-69.158,12.311],[-69.062,12.188],[-68.832,12.049],[-68.824,12.16],[-68.966,12.199]]]},"properties":{"NAME":null,"SUBJECTO":null,"BORDERPRECISION":1}},{"type":"Feature","geometry":{"type":"Polygon","coordinates":[[[-61.6,12.187],[-61.725,12.172],[-61.79,12.009],[-61.643,12.034],[-61.6,12.187]]]},"properties":{"NAME":null,"SUBJECTO":null,"BORDERPRECISION":1}},{"type":"Feature","geometry":{"type":"Polygon","coordinates":[[[-62.171,16.671],[-62.138,16.693],[-62.176,16.809],[-62.237,16.712],[-62.171,16.671]]]},"properties":{"NAME":null,"SUBJECTO":null,"BORDERPRECISION":1}},{"type":"Feature","geometry":{"type":"Polygon","coordinates":[[[-62.541,17.177],[-62.61,17.191],[-62.611,17.095],[-62.539,17.109],[-62.541,17.177]]]},"properties":{"NAME":null,"SUBJECTO":null,"BORDERPRECISION":1}},{"type":"Feature","geometry":{"type":"Polygon","coordinates":[[[-62.693,17.278],[-62.73,17.365],[-62.813,17.409],[-62.864,17.371],[-62.778,17.292],[-62.693,17.278]]]},"properties":{"NAME":null,"SUBJECTO":null,"BORDERPRECISION":1}},{"type":"Feature","geometry":{"type":"Polygon","coordinates":[[[-61.086,16.305],[-61.037,16.311],[-60.991,16.341],[-61.015,16.35],[-61.086,16.305]]]},"properties":{"NAME":null,"SUBJECTO":null,"BORDERPRECISION":1}},{"type":"Feature","geometry":{"type":"Polygon","coordinates":[[[-62.972,17.458],[-62.943,17.494],[-62.986,17.52],[-62.998,17.494],[-62.972,17.458]]]},"properties":{"NAME":null,"SUBJECTO":null,"BORDERPRECISION":1}},{"type":"Feature","geometry":{"type":"Polygon","coordinates":[[[47.614,29.272],[47.911,29.89],[50.132,30.066],[51.35,28.036],[52.891,27.052],[54.646,26.391],[55.9,27.105],[56.79,26.974],[57.255,25.793],[59.031,25.308],[61.344,25.027],[66.621,25.317],[67.486,23.928],[68.533,25.464],[68.123,26.215],[68.191,27.308],[74.34,31.476],[73.793,34.345],[70.514,36.668],[68.533,39.811],[67.834,42.009],[67.026,42.514],[65.813,42.211],[62.581,39.887],[59.247,38.776],[53.985,37.518],[53.8,36.679],[51.417,36.456],[50.939,36.189],[47.92,36.6],[46.204,36.395],[44.695,36.669],[43.996,37.624],[43.391,39.345],[41.654,38.567],[42.438,37.893],[41.138,32.833],[41.95,32.209],[47.614,29.272]]]},"properties":{"NAME":"Seleucid Kingdom","SUBJECTO":"Seleucid Kingdom","BORDERPRECISION":1}},{"type":"Feature","geometry":{"type":"Polygon","coordinates":[[[24.693,34.94],[24.388,35.373],[23.529,35.57],[23.568,35.255],[24.324,35.208],[24.693,34.94]]]},"properties":{"NAME":"Crete","SUBJECTO":"Crete","BORDERPRECISION":1}},{"type":"Feature","geometry":{"type":"Polygon","coordinates":[[[33.345,23.354],[33.69,23.55],[33.657,24.018],[35.19,24.4],[32.649,28.766],[32.814,29.478],[35.092,30.432],[34.341,31.421],[33.558,30.968],[32.077,31.014],[30.996,31.469],[29.249,30.754],[23.153,32.139],[21.673,32.816],[20.366,32.298],[20.117,30.957],[22.092,31.754],[25.443,30.682],[25.455,28.978],[28.406,27.743],[31.206,24.248],[31.058,22.681],[32.605,22.816],[33.345,23.354]]]},"properties":{"NAME":"Ptolemaic Kingdom","SUBJECTO":"Ptolemaic Kingdom","BORDERPRECISION":1}},{"type":"Feature","geometry":{"type":"Polygon","coordinates":[[[35.771,31.64],[35.092,30.432],[32.814,29.478],[34.058,27.79],[34.886,28.357],[37.218,25.167],[39.151,26.247],[36.806,30.317],[35.771,31.64]]]},"properties":{"NAME":"Nabatean Kingdom","SUBJECTO":"Nabatean Kingdom","BORDERPRECISION":1}},{"type":"Feature","geometry":{"type":"Polygon","coordinates":[[[24.931,40.982],[26.614,40.398],[27.474,40.963],[28.828,40.915],[27.502,42.516],[28.446,43.476],[28.686,44.488],[29.616,45.41],[28.221,45.484],[28.037,44.375],[26.311,44.32],[25.218,42.885],[23.985,42.537],[24.931,40.982]]]},"properties":{"NAME":"Kingdom of Lysimachus","SUBJECTO":"Kingdom of Lysimachus","BORDERPRECISION":1}},{"type":"Feature","geometry":{"type":"Polygon","coordinates":[[[23.985,42.537],[21.727,41.899],[19.607,41.762],[19.369,40.26],[21.172,38.348],[22.403,38.398],[22.717,38.796],[22.602,40.397],[24.931,40.982],[23.985,42.537]]]},"properties":{"NAME":"Kingdom of Kassander","SUBJECTO":"Kingdom of Kassander","BORDERPRECISION":1}},{"type":"Feature","geometry":{"type":"Polygon","coordinates":[[[30.983,41.047],[29.161,41.216],[29.848,40.736],[30.983,41.047]]]},"properties":{"NAME":"Bithynia","SUBJECTO":"Bithynia","BORDERPRECISION":1}},{"type":"Feature","geometry":{"type":"Polygon","coordinates":[[[41.138,32.833],[42.438,37.893],[41.654,38.567],[39.354,38.228],[38.472,38.581],[31.64,39.947],[28.958,40.121],[28.478,40.395],[26.765,40.377],[26.708,39.182],[27.16,37.36],[30.473,36.188],[31.371,36.712],[33.171,35.971],[34.485,36.627],[35.709,36.212],[35.873,34.422],[34.341,31.421],[35.092,30.432],[35.771,31.64],[37.215,32.689],[38.793,32.895],[41.138,32.833]]]},"properties":{"NAME":"Kingdom of Antigonus","SUBJECTO":"Kingdom of Antigonus","BORDERPRECISION":1}},{"type":"Feature","geometry":{"type":"MultiPolygon","coordinates":[[[[-7.428,55.064],[-8.59,54.203],[-9.891,52.194],[-9.819,51.435],[-6.406,52.214],[-6.443,53.899],[-6.018,55.093],[-7.428,55.064]]],[[[-0.204,53.523],[-2.742,55.957],[-2.15,57.572],[-5.763,57.62],[-5.633,55.94],[-3.577,54.924],[-2.914,53.267],[-4.318,53.091],[-4.159,51.677],[-3.521,50.617],[0.192,50.731],[1.692,52.311],[-0.204,53.523]]]]},"properties":{"NAME":"Celts","SUBJECTO":"Celts","BORDERPRECISION":1}},{"type":"Feature","geometry":{"type":"Polygon","coordinates":[[[15.941,41.047],[13.621,42.494],[14.051,40.768],[14.899,40.241],[15.941,41.047]]]},"properties":{"NAME":null,"SUBJECTO":null,"BORDERPRECISION":1}},{"type":"Feature","geometry":{"type":"Polygon","coordinates":[[[11.105,42.549],[14.051,40.768],[13.621,42.494],[15.941,41.047],[16.42,41.279],[14.922,41.972],[13.777,43.183],[12.345,42.655],[11.215,43.408],[11.105,42.549]]]},"properties":{"NAME":"Roman Republic","SUBJECTO":"Roman Republic","BORDERPRECISION":1}},{"type":"Feature","geometry":{"type":"Polygon","coordinates":[[[-130.476,54.968],[-129.852,54.998],[-128.588,55.057],[-125.697,55.194],[-115.034,52.033],[-114.467,52],[-105.191,51.453],[-98.922,50.232],[-95.566,49.996],[-87.79,49.931],[-85.036,49.094],[-81.931,48.902],[-72.322,46.295],[-71.034,46.746],[-69.507,48.459],[-67.318,49.425],[-66.373,50.314],[-61.64,50.277],[-60.138,50.412],[-58.524,51.379],[-56.964,51.488],[-55.659,52.187],[-56.127,53.466],[-58.788,52.573],[-60.171,53.299],[-60.222,53.325],[-62.889,54.725],[-65.643,55.263],[-71.033,55.196],[-74.197,52.927],[-78.742,52.744],[-78.491,52.256],[-79.594,51.266],[-81.747,52.17],[-82.341,52.981],[-82.202,54.969],[-84.468,55.167],[-87.467,55.912],[-88.767,56.738],[-90.445,57.144],[-92.404,56.975],[-93.825,56.863],[-102.144,57.214],[-111.284,58.553],[-114.565,60.6],[-118.198,62.713],[-124.936,64.835],[-132.435,62.497],[-139.524,62.416],[-144.68,63.192],[-150.129,63.324],[-160.939,63.985],[-161.133,63.563],[-165.431,62.43],[-165.898,61.27],[-164.027,59.798],[-162.378,60.163],[-162.004,58.827],[-158.291,58.73],[-157.665,57.604],[-160.457,56.2],[-159.077,55.992],[-156.685,57.401],[-154.649,58.076],[-154.282,59.249],[-151.783,59.995],[-149.326,60.027],[-148.493,61.064],[-144.406,60.093],[-139.573,59.9],[-137.577,58.604],[-134.123,58.239],[-130.662,54.959],[-130.476,54.968]]]},"properties":{"NAME":"Subarctic forest hunter-gatherers","SUBJECTO":"Subarctic forest hunter-gatherers","BORDERPRECISION":1}},{"type":"Feature","geometry":{"type":"MultiPolygon","coordinates":[[[[143.057,53.062],[141.767,53.272],[141.643,51.813],[142.153,50.89],[141.732,47.471],[142.49,47.902],[143.633,50.235],[142.944,51.617],[143.057,53.062]]],[[[140.013,41.382],[140.246,42.228],[141.928,42.501],[143.214,41.927],[143.848,42.775],[145.448,43.17],[145.059,43.786],[143.508,44.156],[141.875,45.435],[141.304,43.187],[139.712,42.478],[140.013,41.382]]]]},"properties":{"NAME":"Ainu","SUBJECTO":"Ainu","BORDERPRECISION":1}},{"type":"Feature","geometry":{"type":"Polygon","coordinates":[[[105.403,72.749],[98.459,69.791],[75.856,61.427],[62.806,56.955],[59.094,56.432],[65.312,55.047],[78.362,56.41],[93.7,56.485],[99.537,55.281],[99.485,55.659],[107.962,59.818],[114.016,59.547],[116.707,54.659],[119.936,51.258],[127.336,49.977],[134.87,52.009],[141.047,52.69],[140.102,53.802],[138.417,54.092],[137.979,53.465],[136.351,53.701],[136.492,54.455],[134.985,54.854],[137.229,55.983],[140.587,58.239],[142.846,59.273],[148.416,59.097],[149.045,59.587],[151.14,59.44],[152.504,58.769],[153.924,58.922],[154.316,59.983],[157.098,61.633],[158.841,61.784],[160.645,60.718],[164.138,62.533],[163.329,60.695],[159.649,58.954],[158.326,58.027],[156.777,57.58],[155.628,56.268],[155.465,54.92],[156.696,50.958],[157.898,51.666],[158.461,52.826],[159.897,53.241],[159.931,54.086],[162.008,54.738],[161.503,55.287],[162.512,57.033],[161.804,58.102],[163.389,59.814],[165.78,60.354],[170.344,60.28],[169.481,61.193],[172.441,63.078],[171.768,65.859],[168.135,67.458],[155.892,68.169],[130.867,69.901],[124.544,71.586],[123.501,73.505],[120.579,72.835],[118.46,73.519],[111.762,73.658],[105.403,72.749]]]},"properties":{"NAME":"Paleo-Siberian hunter-gatherers","SUBJECTO":"Paleo-Siberian hunter-gatherers","BORDERPRECISION":1}},{"type":"Feature","geometry":{"type":"Polygon","coordinates":[[[25.196,65.268],[34.726,65.78],[35.772,66.259],[39.19,66.039],[41.255,66.937],[40.826,67.66],[35.437,69.15],[29.729,69.698],[30.799,70.308],[28.308,70.949],[24.571,70.741],[23.204,69.943],[20.158,69.748],[17.407,68.772],[13.169,66.458],[12.112,65.13],[10.155,64.099],[11.528,61.898],[15.43,61.866],[17.832,62.457],[20.701,63.818],[20.921,64.714],[22.646,65.935],[25.196,65.268]]]},"properties":{"NAME":"Saami","SUBJECTO":"Saami","BORDERPRECISION":1}},{"type":"Feature","geometry":{"type":"Polygon","coordinates":[[[105.403,72.749],[113.625,75.273],[113.533,76.094],[108.244,76.646],[103.393,77.558],[99.467,75.967],[89.285,75.466],[86.958,74.782],[87.691,73.9],[80.464,73.314],[79.223,72.271],[73.217,71.458],[74.25,70.573],[73.915,69.154],[74.742,67.686],[72.209,66.173],[70.84,66.551],[72.838,67.646],[72.68,70.824],[71.798,71.432],[72.714,72.77],[69.343,72.834],[66.818,71.105],[67.422,70.223],[66.584,68.886],[62.281,69.705],[57.024,68.449],[53.889,68.787],[48.081,67.562],[45.863,68.383],[43.822,68.327],[44.384,66.612],[42.211,66.41],[39.951,65.581],[39.193,64.511],[37.411,63.749],[35.082,64.288],[34.726,65.78],[25.196,65.268],[21.226,62.418],[29.019,61.771],[32.517,60.932],[46.106,57.709],[53.976,57.709],[59.094,56.432],[62.806,56.955],[75.856,61.427],[98.459,69.791],[105.403,72.749]]]},"properties":{"NAME":"Finno-Ugric taiga hunter-gatherers","SUBJECTO":"Finno-Ugric taiga hunter-gatherers","BORDERPRECISION":1}},{"type":"Feature","geometry":{"type":"MultiPolygon","coordinates":[[[[-43.72,60.004],[-42.785,60.529],[-42.271,62.194],[-40.516,63.782],[-39.695,65.187],[-42.793,65.403],[-43.848,64.206],[-44.258,61.87],[-43.72,60.004]]],[[[-50.539,67.488],[-52.303,66.909],[-53.103,65.873],[-52.078,65.372],[-51.366,63.726],[-49.857,62.967],[-48.915,61.421],[-46.158,60.937],[-46.133,61.759],[-47.656,62.795],[-49.062,64.786],[-49.473,67.033],[-50.539,67.488]]],[[[-62.811,81.156],[-66.522,80.711],[-65.485,79.158],[-72.383,78.526],[-71.184,77.26],[-67.037,75.936],[-62.449,76.338],[-63.358,78.236],[-62.811,81.156]]],[[[-76.024,82.531],[-78.566,80.992],[-83.618,80.207],[-85.807,78.906],[-87.273,76.504],[-78.212,76.547],[-78.367,78.033],[-71.454,79.846],[-66.482,81.303],[-62.427,82.634],[-70.584,83.176],[-76.024,82.531]]],[[[-116.934,72.902],[-118.986,72.034],[-117.314,71.475],[-117.568,69.992],[-113.152,68.596],[-110.448,68.653],[-106.854,69.451],[-104.188,68.898],[-101.808,69.136],[-101.055,70.031],[-104.62,71.093],[-110.347,71.197],[-116.934,72.902]]],[[[-123.493,74.446],[-125.617,71.99],[-123.468,71.199],[-120.843,71.53],[-120.454,72.299],[-117.686,73.215],[-123.148,74.441],[-123.493,74.446]]],[[[-92.404,56.975],[-93.074,58.551],[-94.684,58.878],[-94.753,59.95],[-93.423,61.858],[-90.774,63.302],[-87.435,64.569],[-85.987,66.163],[-83.139,66.373],[-81.295,67.499],[-84.314,69.826],[-86.488,67.378],[-89.736,68.534],[-93.271,71.559],[-95.411,71.859],[-96.7,70.838],[-96.127,69.941],[-92.956,69.084],[-96.208,68.074],[-101.913,67.705],[-105.636,68.355],[-107.662,67.963],[-112.503,67.693],[-115.285,68.892],[-117.832,69.008],[-122.326,69.884],[-125.974,69.43],[-127.352,70.38],[-131.673,69.276],[-135.439,69.526],[-137.729,69.016],[-143.308,70.197],[-145.273,70.116],[-149.286,70.539],[-156.905,71.346],[-160.24,70.858],[-162.879,69.999],[-164.067,69.065],[-166.844,68.405],[-163.739,67.218],[-168.18,65.694],[-166.586,64.73],[-160.939,63.985],[-150.129,63.324],[-144.68,63.192],[-139.524,62.416],[-132.435,62.497],[-124.936,64.835],[-118.198,62.713],[-114.565,60.6],[-111.284,58.553],[-102.144,57.214],[-93.825,56.863],[-92.404,56.975]]],[[[-60.222,53.325],[-60.137,53.684],[-57.515,54.466],[-59.694,55.154],[-61.928,56.273],[-62.887,58.656],[-64.671,60.181],[-65.861,58.795],[-67.772,58.249],[-69.214,58.748],[-70.028,60.883],[-73.395,62.355],[-75.695,62.216],[-77.362,62.517],[-77.507,60.415],[-78.337,58.551],[-76.772,57.663],[-76.439,56.81],[-77.234,55.607],[-79.545,54.692],[-78.742,52.744],[-74.197,52.927],[-71.033,55.196],[-65.643,55.263],[-62.889,54.725],[-60.222,53.325]]],[[[-56.127,53.466],[-57.561,54.131],[-60.171,53.299],[-58.788,52.573],[-56.127,53.466]]],[[[170.344,60.28],[173.481,61.601],[179.288,62.815],[178.147,64.157],[180,64.953],[180,65.052],[180,65.311],[180,65.382],[180,65.963],[180,66.963],[180,67.963],[180,68.92],[175.611,69.779],[170.452,70.019],[170.833,68.922],[169.389,68.717],[167.32,69.659],[161.961,69.528],[159.444,69.765],[158.409,70.814],[152.134,70.664],[146.915,72.202],[141.294,72.787],[137.63,71.075],[132.284,71.661],[130.779,70.678],[126.216,72.382],[127.72,73.402],[123.501,73.505],[124.544,71.586],[130.867,69.901],[155.892,68.169],[168.135,67.458],[171.768,65.859],[172.441,63.078],[169.481,61.193],[170.344,60.28]]],[[[-75.625,69.102],[-73.185,68.296],[-72.305,67.264],[-75.789,65.197],[-73.164,64.574],[-71.319,63.061],[-69.155,62.42],[-65.94,61.79],[-66.496,63.077],[-64.474,63.744],[-67.614,65.912],[-62.845,65.614],[-61.211,66.635],[-68.665,68.716],[-66.668,69.186],[-69.463,69.96],[-71.253,71.351],[-73.275,71.161],[-75.322,72.548],[-80.489,73.037],[-81.532,73.688],[-88.099,73.636],[-89.639,72.782],[-89.997,71.541],[-87.949,71.351],[-87.948,70.385],[-82.269,69.86],[-78.713,70.011],[-75.625,69.102]]],[[[-81.911,64.522],[-85.558,65.864],[-86.243,64.542],[-85.463,63.206],[-81.911,64.522]]],[[[-95.058,72.283],[-92.001,72.841],[-90.452,73.904],[-95.069,74.064],[-95.058,72.283]]],[[[-102.279,73.147],[-101.654,72.373],[-98.939,71.392],[-96.85,71.88],[-96.689,72.817],[-102.279,73.147]]],[[[-88.326,74.682],[-80.349,74.616],[-81.703,75.875],[-86.618,75.432],[-92.224,75.947],[-91.867,74.789],[-88.326,74.682]]],[[[-170.473,66.295],[-173.875,67.159],[-180,68.917],[-180,67.963],[-180,66.963],[-180,65.963],[-180,65.382],[-180,65.311],[-180,65.259],[-178.116,65.482],[-173.077,64.384],[-172.562,65.515],[-170.473,66.295]]]]},"properties":{"NAME":"Arctic marine mammal hunters","SUBJECTO":"Arctic marine mammal hunters","BORDERPRECISION":1}},{"type":"Feature","geometry":{"type":"Polygon","coordinates":[[[-80.239,-3.478],[-76.453,-5.045],[-73.084,-4.724],[-74.226,-2.268],[-77.302,-0.891],[-80.87,-1.205],[-80.239,-3.478]]]},"properties":{"NAME":"Chorrera","SUBJECTO":"Chorrera","BORDERPRECISION":1}},{"type":"Feature","geometry":{"type":"Polygon","coordinates":[[[-48.728,-28.367],[-48.516,-25.876],[-48.725,-25.426],[-46.206,-23.883],[-45.459,-23.856],[-44.561,-22.99],[-43.236,-23.032],[-43.277,-21.589],[-45.943,-21.752],[-49.487,-24.553],[-49.839,-26.797],[-48.797,-28.476],[-48.728,-28.367]]]},"properties":{"NAME":"Shellfish gatherers","SUBJECTO":"Shellfish gatherers","BORDERPRECISION":1}},{"type":"Feature","geometry":{"type":"Polygon","coordinates":[[[-64.194,-14.695],[-60.268,-13.81],[-51.538,-14.378],[-48.315,-13.924],[-39.937,-8.292],[-37.888,-4.393],[-38.786,-3.604],[-40.231,-2.851],[-42.316,-2.818],[-43.334,-2.432],[-44.549,-3.103],[-45.375,-3.165],[-49.066,-4.744],[-54.163,-4.627],[-56.331,-4.335],[-58.44,-2.288],[-57.972,-0.589],[-55.804,0.876],[-55.862,1.696],[-58.558,3.978],[-62.659,4.153],[-66.408,3.042],[-70.158,-5.735],[-69.045,-8.236],[-64.194,-14.695]]]},"properties":{"NAME":"Amazon hunter-gatherers","SUBJECTO":"Amazon hunter-gatherers","BORDERPRECISION":1}},{"type":"Feature","geometry":{"type":"Polygon","coordinates":[[[-52.042,-31.557],[-50.582,-30.416],[-48.797,-28.476],[-49.839,-26.797],[-49.487,-24.553],[-45.943,-21.752],[-43.277,-21.589],[-43.236,-23.032],[-41.958,-22.921],[-40.984,-22.086],[-40.933,-21.279],[-39.691,-19.409],[-39.666,-18.227],[-39.142,-17.775],[-38.948,-16.002],[-39.126,-14.325],[-38.799,-12.627],[-38.266,-12.887],[-37.187,-10.845],[-35.599,-9.628],[-34.891,-7.612],[-35.464,-5.268],[-37.181,-4.954],[-37.888,-4.393],[-39.937,-8.292],[-48.315,-13.924],[-51.538,-14.378],[-60.268,-13.81],[-64.194,-14.695],[-64.662,-16.805],[-65.906,-18.311],[-66.097,-20.138],[-67.123,-25.032],[-68.617,-26.666],[-69.32,-29.305],[-67.482,-31.656],[-63.563,-30.037],[-57.353,-29.681],[-54.365,-30.593],[-53.544,-31.446],[-52.14,-31.741],[-52.042,-31.557]]]},"properties":{"NAME":"Savanna hunter-gatherers","SUBJECTO":"Savanna hunter-gatherers","BORDERPRECISION":1}},{"type":"Feature","geometry":{"type":"Polygon","coordinates":[[[-69.167,-51.149],[-67.833,-49.968],[-67.578,-49.059],[-66.078,-48.142],[-65.776,-47.23],[-67.328,-46.532],[-66.695,-45.131],[-65.436,-44.89],[-65.307,-43.601],[-63.6,-42.704],[-64.992,-42.193],[-64.939,-40.827],[-62.964,-41.137],[-62.068,-39.556],[-61.361,-39.031],[-59.515,-38.875],[-57.809,-38.386],[-56.698,-36.944],[-57.419,-35.997],[-57.348,-34.508],[-56.338,-34.995],[-54.074,-34.648],[-52.351,-32.675],[-52.14,-31.741],[-53.544,-31.446],[-54.365,-30.593],[-57.353,-29.681],[-63.563,-30.037],[-67.482,-31.656],[-67.65,-33.577],[-69.437,-37.159],[-72.068,-40.547],[-70.579,-40.579],[-71.634,-43.196],[-72.191,-45.99],[-72.044,-48.766],[-71.165,-51.561],[-69.115,-51.352],[-69.167,-51.149]]]},"properties":{"NAME":"Pampas cultures","SUBJECTO":"Pampas cultures","BORDERPRECISION":1}},{"type":"Feature","geometry":{"type":"Polygon","coordinates":[[[-70.112,-20.693],[-70.292,-22.987],[-70.573,-23.166],[-70.398,-25.249],[-70.935,-27.727],[-71.43,-29.1],[-71.695,-30.854],[-71.416,-32.753],[-71.616,-33.706],[-72.629,-35.646],[-73.144,-37.156],[-73.673,-37.501],[-73.194,-39.565],[-73.905,-40.839],[-72.728,-41.553],[-72.068,-40.547],[-69.437,-37.159],[-67.65,-33.577],[-67.482,-31.656],[-69.32,-29.305],[-68.617,-26.666],[-67.123,-25.032],[-66.097,-20.138],[-65.906,-18.311],[-66.595,-19.145],[-68.133,-19.349],[-69.071,-20.066],[-70.148,-20.268],[-70.112,-20.693]]]},"properties":{"NAME":"Andean hunter-gatherers","SUBJECTO":"Andean hunter-gatherers","BORDERPRECISION":1}},{"type":"Feature","geometry":{"type":"MultiPolygon","coordinates":[[[[-69.115,-51.352],[-71.165,-51.561],[-72.044,-48.766],[-72.191,-45.99],[-71.634,-43.196],[-70.579,-40.579],[-72.068,-40.547],[-72.728,-41.553],[-72.53,-43.063],[-72.999,-43.334],[-73.571,-46.265],[-74.312,-48.745],[-74.075,-50.473],[-73.408,-52.024],[-71.872,-53.696],[-69.483,-52.361],[-69.115,-51.352]]],[[[-69.214,-54.934],[-66.983,-54.341],[-68.305,-52.943],[-69.407,-52.566],[-70.333,-53.473],[-69.214,-54.934]]]]},"properties":{"NAME":"Patagonian shellfish and marine mammal hunters","SUBJECTO":"Patagonian shellfish and marine mammal hunters","BORDERPRECISION":1}},{"type":"Feature","geometry":{"type":"MultiPolygon","coordinates":[[[[-71.182,9.277],[-70.682,8.557],[-65.965,8.18],[-63.065,8.325],[-61.696,8.61],[-60.793,9.388],[-61.531,9.851],[-64.068,10.627],[-64.884,10.136],[-66.478,10.679],[-67.98,10.542],[-68.695,11.38],[-69.748,11.533],[-71.098,11.12],[-71.496,10.646],[-71.182,9.277]]],[[[-48.64,-1.058],[-48.402,-0.391],[-50.501,-0.262],[-50.476,-1.679],[-49.347,-1.645],[-48.64,-1.058]]],[[[-77.099,20.533],[-75.519,19.907],[-74.345,20.323],[-75.604,21.013],[-77.34,21.512],[-79.76,22.759],[-81.431,23.137],[-81.792,22.208],[-79.735,21.672],[-78.728,21.617],[-78.45,20.969],[-77.099,20.533]]],[[[-70.765,18.494],[-68.657,18.873],[-70.882,19.93],[-72.676,19.392],[-72.746,18.509],[-71.401,17.704],[-70.765,18.494]]]]},"properties":{"NAME":"Caribbean hunter-gatherers","SUBJECTO":"Caribbean hunter-gatherers","BORDERPRECISION":1}},{"type":"Feature","geometry":{"type":"Polygon","coordinates":[[[-74.673,-14.892],[-74.631,-13.905],[-75.564,-12.873],[-76.238,-13.568],[-76.242,-14.106],[-75.2,-15.244],[-74.673,-14.892]]]},"properties":{"NAME":"Paracas","SUBJECTO":"Paracas","BORDERPRECISION":1}},{"type":"Feature","geometry":{"type":"Polygon","coordinates":[[[-80.372,-3.567],[-81.418,-4.675],[-80.612,-6.37],[-79.06,-8.216],[-77.759,-10.659],[-76.238,-13.568],[-75.564,-12.873],[-74.631,-13.905],[-74.673,-14.892],[-75.2,-15.244],[-74.05,-16.045],[-71.612,-17.221],[-70.584,-18.083],[-70.148,-20.268],[-69.071,-20.066],[-68.133,-19.349],[-66.595,-19.145],[-65.906,-18.311],[-64.662,-16.805],[-64.194,-14.695],[-69.045,-8.236],[-70.158,-5.735],[-66.408,3.042],[-62.659,4.153],[-58.558,3.978],[-55.862,1.696],[-55.804,0.876],[-57.972,-0.589],[-58.44,-2.288],[-56.331,-4.335],[-54.163,-4.627],[-49.066,-4.744],[-45.375,-3.165],[-44.549,-3.103],[-44.796,-1.736],[-47.237,-0.68],[-48.043,-0.816],[-49.221,-2.108],[-50.643,-1.882],[-51.529,-0.429],[-49.884,1.214],[-50.688,2.216],[-51.209,4.071],[-53.027,5.427],[-54.286,5.882],[-56.746,6.003],[-58.575,6.984],[-58.617,7.499],[-59.834,8.44],[-61.696,8.61],[-63.065,8.325],[-65.965,8.18],[-70.682,8.557],[-71.182,9.277],[-72.114,9.904],[-71.688,10.769],[-72.38,11.81],[-73.362,11.325],[-74.219,11.368],[-75.45,10.628],[-75.703,9.426],[-76.764,8.693],[-78.207,9.352],[-78.547,8.746],[-77.897,7.172],[-77.4,6.67],[-77.5,5.514],[-77.106,3.792],[-77.802,2.577],[-78.468,2.467],[-78.984,1.297],[-80.086,0.818],[-80.339,-0.663],[-80.87,-1.205],[-77.302,-0.891],[-74.226,-2.268],[-73.084,-4.724],[-76.453,-5.045],[-80.239,-3.478],[-80.372,-3.567]],[[-73.952,-9.041],[-74.121,-10.463],[-76.045,-11.381],[-77.161,-10.557],[-77.64,-9.547],[-77.427,-8.856],[-73.952,-9.041]],[[-70.344,-17.135],[-69.856,-16.506],[-68.795,-16.384],[-68.731,-17.682],[-69.835,-17.722],[-70.344,-17.135]]]},"properties":{"NAME":"Manioc farmers","SUBJECTO":"Manioc farmers","BORDERPRECISION":1}},{"type":"Feature","geometry":{"type":"Polygon","coordinates":[[[-70.344,-17.135],[-69.835,-17.722],[-68.731,-17.682],[-68.795,-16.384],[-69.856,-16.506],[-70.344,-17.135]]]},"properties":{"NAME":"Wankarani","SUBJECTO":"Wankarani","BORDERPRECISION":1}},{"type":"Feature","geometry":{"type":"Polygon","coordinates":[[[-96.831,28.158],[-94.118,29.693],[-94.118,31.93],[-95.82,32.715],[-97.139,34.471],[-96.406,35.646],[-94.619,36.097],[-94.118,35.876],[-94.118,39.732],[-94.235,46.721],[-95.566,49.996],[-98.922,50.232],[-105.191,51.453],[-114.467,52],[-114.126,47.952],[-111.668,41.935],[-111.548,41.642],[-104.517,33.873],[-98.19,29.181],[-97.206,28.074],[-96.831,28.158]]]},"properties":{"NAME":"Plain bison hunters","SUBJECTO":"Plain bison hunters","BORDERPRECISION":1}},{"type":"Feature","geometry":{"type":"Polygon","coordinates":[[[-110.527,27.762],[-109.937,28.204],[-107.564,27.765],[-104.224,25.116],[-100.357,23.97],[-97.822,24.143],[-97.26,25.811],[-97.632,27.228],[-97.206,28.074],[-98.19,29.181],[-104.517,33.873],[-111.548,41.642],[-111.668,41.935],[-115.093,42.512],[-119.018,43.113],[-120.474,43.57],[-121.362,39.687],[-120.132,34.519],[-118.604,34.096],[-117.497,33.325],[-116.705,31.591],[-115.602,29.685],[-114.067,28.423],[-114.478,27.244],[-112.411,26.193],[-112.166,25.011],[-110.225,23.4],[-110.205,24.315],[-110.798,24.88],[-112.87,28.335],[-114.683,30.143],[-114.839,31.815],[-113.052,31.139],[-112.654,29.919],[-111.692,28.496],[-110.527,27.762]]]},"properties":{"NAME":"Desert hunter-gatherers","SUBJECTO":"Desert hunter-gatherers","BORDERPRECISION":1}},{"type":"Feature","geometry":{"type":"Polygon","coordinates":[[[-128.588,55.057],[-124.76,52.448],[-120.483,48.962],[-120.307,44.299],[-120.474,43.57],[-119.018,43.113],[-115.093,42.512],[-111.668,41.935],[-114.126,47.952],[-114.467,52],[-115.034,52.033],[-125.697,55.194],[-128.588,55.057]]]},"properties":{"NAME":"Plateau fichers and hunter gatherers","SUBJECTO":"Plateau fichers and hunter gatherers","BORDERPRECISION":1}},{"type":"Feature","geometry":{"type":"MultiPolygon","coordinates":[[[[-120.132,34.519],[-121.362,39.687],[-120.474,43.57],[-120.307,44.299],[-120.483,48.962],[-124.76,52.448],[-128.588,55.057],[-129.852,54.998],[-130.004,53.938],[-127.556,52.168],[-127.247,50.968],[-124.939,50.596],[-124.795,50.035],[-122.606,48.835],[-122.826,48.023],[-124.675,48.386],[-123.995,45.764],[-124.63,43.014],[-124.153,41.58],[-124.365,40.334],[-123.796,39.03],[-121.932,37.009],[-121.927,36.338],[-120.132,34.519]]],[[[-126.563,49.572],[-123.902,48.471],[-123.861,49.158],[-125.719,50.409],[-126.563,49.572]]]]},"properties":{"NAME":"North American Pacifi foraging, hunting and fishing peoples","SUBJECTO":"North American Pacifi foraging, hunting and fishing peoples","BORDERPRECISION":1}},{"type":"Feature","geometry":{"type":"Polygon","coordinates":[[[39.518,15.463],[39.236,16.249],[35.829,14.224],[35.384,12.804],[32.879,12.471],[30.6,11.116],[24.074,11.182],[23.2,11.775],[20.442,11.973],[17.751,12.827],[8.266,12.367],[2.346,13.286],[-6.265,13.351],[-13.396,14.917],[-17.033,14.565],[-16.471,13.723],[-16.772,12.597],[-14.591,10.467],[-13.68,9.916],[-12.264,7.351],[-9.937,5.863],[-9.248,5.172],[-7.529,4.337],[-5,5.238],[-3.942,5.266],[-2.031,4.698],[1.558,6.237],[3.949,6.579],[5.359,5.368],[12.605,7.732],[22.225,6.196],[33.93,2.844],[36.015,1.297],[38.773,-2.267],[39.48,-2.469],[40.455,-1.36],[40.859,0.322],[42.54,1.264],[44.137,1.151],[46.361,2.668],[48.472,5.201],[49.046,6.416],[50.779,9.368],[51.181,11.777],[50.697,11.948],[49.304,11.246],[47.391,11.159],[44.281,10.396],[43.368,11.456],[43.33,12.434],[42.408,13.175],[39.557,13.055],[38.305,13.222],[37.804,14.223],[38.305,15.058],[39.518,15.463]],[[38.605,6.597],[35.578,5.527],[33.022,6.865],[32.349,9.528],[34.232,11.709],[37.125,11.644],[39.143,9.063],[38.605,6.597]]]},"properties":{"NAME":"West African cereal farmers","SUBJECTO":"West African cereal farmers","BORDERPRECISION":1}},{"type":"Feature","geometry":{"type":"MultiPolygon","coordinates":[[[[45.197,-16.037],[44.454,-16.242],[43.972,-17.553],[44.47,-20.17],[43.501,-21.494],[43.376,-22.632],[43.827,-23.413],[43.671,-24.227],[44.425,-25.312],[45.576,-25.621],[47.258,-24.766],[48.087,-22.044],[49.342,-18.228],[49.425,-17.198],[50.503,-15.314],[49.817,-12.831],[49.176,-12.266],[48.751,-13.418],[46.925,-15.36],[45.197,-16.037]]],[[[5.359,5.368],[5.607,4.632],[6.844,4.292],[8.875,4.62],[9.923,2.824],[9.851,1.877],[9.203,-0.634],[8.815,-0.896],[9.656,-2.419],[11.773,-4.537],[12.372,-6.258],[13.387,-8.156],[13.204,-9.637],[13.816,-10.976],[13.649,-12.197],[12.585,-13.464],[11.782,-15.868],[11.775,-17.596],[14.415,-22.268],[14.843,-25.622],[15.454,-27.616],[16.788,-29.139],[18.179,-31.805],[18.487,-34.398],[20.256,-34.623],[22.682,-34.103],[24.43,-34.335],[26.659,-33.847],[28.922,-32.298],[30.391,-30.814],[31.563,-29.21],[32.235,-28.744],[33.347,-25.304],[34.884,-24.722],[35.297,-23.825],[35.261,-22.274],[34.726,-19.86],[37.275,-17.713],[39.471,-16.717],[40.386,-15.736],[40.599,-14.401],[40.311,-11.345],[40.62,-10.766],[39.658,-9.796],[39.27,-7.801],[39.566,-7.044],[38.922,-6.34],[39.267,-4.776],[40.234,-3.192],[42.44,-0.512],[44.137,1.151],[42.54,1.264],[40.859,0.322],[40.455,-1.36],[39.48,-2.469],[38.773,-2.267],[36.015,1.297],[33.93,2.844],[22.225,6.196],[12.605,7.732],[5.359,5.368]]]]},"properties":{"NAME":"Khoiasan","SUBJECTO":"Khoiasan","BORDERPRECISION":1}},{"type":"Feature","geometry":null,"properties":{"NAME":"Saharan Pastoral Nomads","SUBJECTO":"Saharan Pastoral Nomads","BORDERPRECISION":1}},{"type":"Feature","geometry":{"type":"Polygon","coordinates":[[[34.551,20.183],[37.136,21.128],[36.66,22.167],[35.746,22.914],[35.19,24.4],[33.657,24.018],[33.69,23.55],[33.345,23.354],[34.551,20.183]]]},"properties":{"NAME":"Blemmyes","SUBJECTO":"Blemmyes","BORDERPRECISION":1}},{"type":"Feature","geometry":null,"properties":{"NAME":"Saharan Pastoral Nomads","SUBJECTO":"Saharan Pastoral Nomads","BORDERPRECISION":1}},{"type":"Feature","geometry":{"type":"Polygon","coordinates":[[[35.829,14.224],[39.236,16.249],[38.686,18.003],[37.398,18.915],[37.136,21.128],[34.551,20.183],[35.229,18.51],[35.969,15.482],[35.829,14.224]]]},"properties":{"NAME":"Saharan Pastoral Nomads","SUBJECTO":"Saharan Pastoral Nomads","BORDERPRECISION":1}},{"type":"Feature","geometry":{"type":"Polygon","coordinates":[[[38.605,6.597],[39.143,9.063],[37.125,11.644],[34.232,11.709],[32.349,9.528],[33.022,6.865],[35.578,5.527],[38.605,6.597]]]},"properties":{"NAME":null,"SUBJECTO":null,"BORDERPRECISION":1}},{"type":"Feature","geometry":{"type":"Polygon","coordinates":[[[31.058,22.681],[31.206,24.248],[28.406,27.743],[25.455,28.978],[25.443,30.682],[22.092,31.754],[20.117,30.957],[19.125,30.199],[18.829,29.798],[13.439,31.146],[10.003,32.426],[7.51,34.447],[6.566,34.582],[3.4,34.447],[0.031,33.504],[-1.586,33.234],[-4.011,33.302],[-6.753,34.123],[-9.219,32.58],[-9.813,31.289],[-9.663,29.955],[-11.576,28.229],[-12.866,27.857],[-13.629,26.591],[-14.367,26.119],[-14.82,24.733],[-15.714,23.873],[-16.806,21.99],[-17.052,21.004],[-16.347,20.523],[-15.983,18.178],[-16.45,16.118],[-17.033,14.565],[-13.396,14.917],[-6.265,13.351],[2.346,13.286],[8.266,12.367],[17.751,12.827],[20.442,11.973],[23.2,11.775],[24.074,11.182],[30.6,11.116],[32.879,12.471],[31.798,12.522],[31.058,13.128],[30.268,15.536],[30,17.413],[29.847,20.125],[31.058,22.681]]]},"properties":{"NAME":"Saharan Pastoral Nomads","SUBJECTO":"Saharan Pastoral Nomads","BORDERPRECISION":1}},{"type":"Feature","geometry":{"type":"Polygon","coordinates":[[[-95.566,49.996],[-94.235,46.721],[-94.118,39.732],[-94.118,35.876],[-94.619,36.097],[-96.406,35.646],[-97.139,34.471],[-95.82,32.715],[-94.118,31.93],[-94.118,29.693],[-92.117,29.542],[-90.779,29.109],[-89.233,30.406],[-87.775,30.263],[-86.389,30.473],[-85.305,29.664],[-83.886,30.048],[-82.647,28.907],[-82.429,27.826],[-80.592,28.492],[-81.512,30.727],[-80.581,32.497],[-76.622,34.763],[-75.729,35.882],[-76.215,37.943],[-75.668,37.898],[-74.153,39.765],[-73.741,40.977],[-70.302,41.759],[-70.868,42.871],[-70.216,43.8],[-67.169,44.711],[-65.713,43.56],[-61.032,45.379],[-64.535,46.272],[-65.213,48.121],[-66.03,49.166],[-69.254,48.12],[-71.034,46.746],[-72.322,46.295],[-81.931,48.902],[-85.036,49.094],[-87.79,49.931],[-95.566,49.996]],[[-86.276,42.442],[-87.224,41.635],[-87.908,43.192],[-86.72,45.867],[-85.382,46.075],[-84.952,45.408],[-86.002,44.917],[-86.514,43.681],[-86.276,42.442]],[[-84.634,45.751],[-83.794,46.257],[-80.807,45.955],[-79.918,44.967],[-81.095,44.799],[-81.808,43.318],[-83.386,44.313],[-83.431,45.275],[-84.634,45.751]],[[-92.256,46.647],[-89.517,48.004],[-88.095,49.005],[-86.384,48.725],[-85.027,47.94],[-84.442,46.817],[-87.273,46.512],[-87.76,46.864],[-90.832,46.944],[-92.256,46.647]],[[-85.564,37.553],[-85.97,40.06],[-79.806,41.445],[-78.316,40.653],[-79.975,37.579],[-82.143,36.96],[-85.564,37.553]]]},"properties":{"NAME":"Eastern North Amercian hunter-gatherers","SUBJECTO":"Eastern North Amercian hunter-gatherers","BORDERPRECISION":1}},{"type":"Feature","geometry":{"type":"Polygon","coordinates":[[[-85.564,37.553],[-82.143,36.96],[-79.975,37.579],[-78.316,40.653],[-79.806,41.445],[-85.97,40.06],[-85.564,37.553]]]},"properties":{"NAME":"Adena Culture","SUBJECTO":"Adena Culture","BORDERPRECISION":1}},{"type":"Feature","geometry":{"type":"Polygon","coordinates":[[[-82.429,27.826],[-82.31,26.825],[-81.098,25.125],[-80.314,25.244],[-80.05,26.551],[-80.592,28.492],[-82.429,27.826]]]},"properties":{"NAME":"Glades Culture","SUBJECTO":"Glades Culture","BORDERPRECISION":1}},{"type":"Feature","geometry":{"type":"Polygon","coordinates":[[[-4.153,53.226],[-4.277,53.398],[-4.567,53.273],[-4.351,53.124],[-4.153,53.226]]]},"properties":{"NAME":null,"SUBJECTO":null,"BORDERPRECISION":1}},{"type":"Feature","geometry":{"type":"Polygon","coordinates":[[[-5.104,55.439],[-5.155,55.673],[-5.4,55.601],[-5.104,55.439]]]},"properties":{"NAME":null,"SUBJECTO":null,"BORDERPRECISION":1}},{"type":"Feature","geometry":{"type":"Polygon","coordinates":[[[-6.122,55.879],[-6.327,55.589],[-6.025,55.681],[-6.122,55.879]]]},"properties":{"NAME":null,"SUBJECTO":null,"BORDERPRECISION":1}},{"type":"Feature","geometry":{"type":"Polygon","coordinates":[[[-5.947,55.83],[-5.746,56.064],[-5.968,56.024],[-6.079,55.906],[-5.947,55.83]]]},"properties":{"NAME":null,"SUBJECTO":null,"BORDERPRECISION":1}},{"type":"Feature","geometry":{"type":"Polygon","coordinates":[[[-7.467,56.941],[-7.376,56.979],[-7.446,57.056],[-7.554,56.966],[-7.467,56.941]]]},"properties":{"NAME":null,"SUBJECTO":null,"BORDERPRECISION":1}},{"type":"Feature","geometry":{"type":"Polygon","coordinates":[[[-7.223,57.337],[-7.425,57.382],[-7.381,57.109],[-7.23,57.095],[-7.223,57.337]]]},"properties":{"NAME":null,"SUBJECTO":null,"BORDERPRECISION":1}},{"type":"Feature","geometry":{"type":"Polygon","coordinates":[[[-7.269,57.399],[-7.205,57.461],[-7.351,57.489],[-7.388,57.424],[-7.269,57.399]]]},"properties":{"NAME":null,"SUBJECTO":null,"BORDERPRECISION":1}},{"type":"Feature","geometry":{"type":"Polygon","coordinates":[[[-7.189,57.687],[-7.477,57.562],[-7.154,57.509],[-7.189,57.687]]]},"properties":{"NAME":null,"SUBJECTO":null,"BORDERPRECISION":1}},{"type":"Feature","geometry":{"type":"Polygon","coordinates":[[[-7.006,57.881],[-6.994,57.919],[-7.074,57.896],[-7.006,57.881]]]},"properties":{"NAME":null,"SUBJECTO":null,"BORDERPRECISION":1}},{"type":"Feature","geometry":{"type":"Polygon","coordinates":[[[-6.802,58.203],[-6.794,58.218],[-6.854,58.25],[-6.873,58.206],[-6.802,58.203]]]},"properties":{"NAME":null,"SUBJECTO":null,"BORDERPRECISION":1}},{"type":"Feature","geometry":{"type":"Polygon","coordinates":[[[-6.204,58.356],[-7.032,58.238],[-6.474,57.94],[-6.204,58.356]]]},"properties":{"NAME":null,"SUBJECTO":null,"BORDERPRECISION":1}},{"type":"Feature","geometry":{"type":"Polygon","coordinates":[[[-2.918,58.732],[-2.877,58.82],[-3.037,58.818],[-2.918,58.732]]]},"properties":{"NAME":null,"SUBJECTO":null,"BORDERPRECISION":1}},{"type":"Feature","geometry":{"type":"Polygon","coordinates":[[[-3.231,58.776],[-3.136,58.804],[-3.336,58.927],[-3.431,58.871],[-3.231,58.776]]]},"properties":{"NAME":null,"SUBJECTO":null,"BORDERPRECISION":1}},{"type":"Feature","geometry":{"type":"Polygon","coordinates":[[[-2.793,58.951],[-3.077,59.122],[-3.195,58.911],[-2.793,58.951]]]},"properties":{"NAME":null,"SUBJECTO":null,"BORDERPRECISION":1}},{"type":"Feature","geometry":{"type":"Polygon","coordinates":[[[-2.681,59.196],[-2.621,59.236],[-2.496,59.245],[-2.414,59.314],[-2.593,59.291],[-2.681,59.196]]]},"properties":{"NAME":null,"SUBJECTO":null,"BORDERPRECISION":1}},{"type":"Feature","geometry":{"type":"Polygon","coordinates":[[[-2.89,59.295],[-3.049,59.329],[-3.003,59.264],[-2.972,59.287],[-2.89,59.295]]]},"properties":{"NAME":null,"SUBJECTO":null,"BORDERPRECISION":1}},{"type":"Feature","geometry":{"type":"Polygon","coordinates":[[[-1.296,60.491],[-1.32,60.356],[-1.655,60.226],[-1.126,60.152],[-1.041,60.447],[-1.296,60.491]]]},"properties":{"NAME":null,"SUBJECTO":null,"BORDERPRECISION":1}},{"type":"Feature","geometry":{"type":"Polygon","coordinates":[[[-1.029,60.496],[-0.991,60.72],[-1.177,60.637],[-1.029,60.496]]]},"properties":{"NAME":null,"SUBJECTO":null,"BORDERPRECISION":1}},{"type":"Feature","geometry":{"type":"Polygon","coordinates":[[[-0.82,60.689],[-0.768,60.829],[-0.939,60.794],[-0.966,60.688],[-0.82,60.689]]]},"properties":{"NAME":null,"SUBJECTO":null,"BORDERPRECISION":1}},{"type":"Feature","geometry":{"type":"Polygon","coordinates":[[[-6.707,61.937],[-6.719,62.029],[-7.192,62.308],[-7.232,62.172],[-6.707,61.937]]]},"properties":{"NAME":null,"SUBJECTO":null,"BORDERPRECISION":1}},{"type":"Feature","geometry":{"type":"Polygon","coordinates":[[[-4.778,54.056],[-4.394,54.186],[-4.527,54.367],[-4.778,54.056]]]},"properties":{"NAME":null,"SUBJECTO":null,"BORDERPRECISION":1}},{"type":"Feature","geometry":{"type":"Polygon","coordinates":[[[18.206,56.912],[18.712,57.242],[18.809,57.704],[18.111,57.519],[18.206,56.912]]]},"properties":{"NAME":null,"SUBJECTO":null,"BORDERPRECISION":1}},{"type":"Feature","geometry":{"type":"Polygon","coordinates":[[[129.716,28.451],[129.158,28.235],[129.369,28.116],[129.716,28.451]]]},"properties":{"NAME":null,"SUBJECTO":null,"BORDERPRECISION":1}},{"type":"Feature","geometry":{"type":"Polygon","coordinates":[[[129.963,29.957],[129.942,30],[129.924,29.984],[129.963,29.957]]]},"properties":{"NAME":null,"SUBJECTO":null,"BORDERPRECISION":1}},{"type":"Feature","geometry":{"type":"Polygon","coordinates":[[[129.896,29.874],[129.877,29.831],[129.923,29.825],[129.896,29.874]]]},"properties":{"NAME":null,"SUBJECTO":null,"BORDERPRECISION":1}},{"type":"Feature","geometry":{"type":"Polygon","coordinates":[[[130.906,30.355],[131.074,30.689],[130.945,30.683],[130.906,30.355]]]},"properties":{"NAME":null,"SUBJECTO":null,"BORDERPRECISION":1}},{"type":"Feature","geometry":{"type":"Polygon","coordinates":[[[130.559,30.236],[130.672,30.373],[130.511,30.459],[130.387,30.397],[130.559,30.236]]]},"properties":{"NAME":null,"SUBJECTO":null,"BORDERPRECISION":1}},{"type":"Feature","geometry":{"type":"Polygon","coordinates":[[[120.907,24.845],[120.728,24.627],[120.674,24.551],[120.049,23.061],[120.696,21.971],[121.453,23.327],[121.999,25.011],[120.907,24.845]]]},"properties":{"NAME":null,"SUBJECTO":null,"BORDERPRECISION":1}},{"type":"Feature","geometry":{"type":"Polygon","coordinates":[[[128.901,32.643],[128.649,32.778],[128.61,32.612],[128.901,32.643]]]},"properties":{"NAME":null,"SUBJECTO":null,"BORDERPRECISION":1}},{"type":"Feature","geometry":{"type":"MultiPolygon","coordinates":[[[[127.956,34.801],[127.916,34.88],[127.868,34.917],[127.956,34.801]]],[[[128.532,38.331],[128.27,38.42],[129.25,37.009],[128.978,35.089],[129.439,35.476],[129.342,37.257],[128.532,38.331]]]]},"properties":{"NAME":null,"SUBJECTO":null,"BORDERPRECISION":1}},{"type":"Feature","geometry":{"type":"Polygon","coordinates":[[[123.871,24.252],[123.922,24.371],[123.767,24.414],[123.679,24.316],[123.871,24.252]]]},"properties":{"NAME":null,"SUBJECTO":null,"BORDERPRECISION":1}},{"type":"Feature","geometry":{"type":"Polygon","coordinates":[[[125.356,24.777],[125.262,24.879],[125.252,24.738],[125.356,24.777]]]},"properties":{"NAME":null,"SUBJECTO":null,"BORDERPRECISION":1}},{"type":"Feature","geometry":{"type":"Polygon","coordinates":[[[124.262,24.457],[124.078,24.42],[124.122,24.345],[124.23,24.338],[124.262,24.457]]]},"properties":{"NAME":null,"SUBJECTO":null,"BORDERPRECISION":1}},{"type":"Feature","geometry":{"type":"Polygon","coordinates":[[[128.253,26.639],[128.247,26.84],[127.959,26.544],[128.253,26.639]]]},"properties":{"NAME":null,"SUBJECTO":null,"BORDERPRECISION":1}},{"type":"Feature","geometry":{"type":"Polygon","coordinates":[[[126.762,26.387],[126.702,26.349],[126.781,26.298],[126.81,26.347],[126.762,26.387]]]},"properties":{"NAME":null,"SUBJECTO":null,"BORDERPRECISION":1}},{"type":"Feature","geometry":{"type":"Polygon","coordinates":[[[128.951,27.676],[129.03,27.774],[128.899,27.898],[128.897,27.726],[128.951,27.676]]]},"properties":{"NAME":null,"SUBJECTO":null,"BORDERPRECISION":1}},{"type":"Feature","geometry":{"type":"Polygon","coordinates":[[[128.609,27.359],[128.696,27.449],[128.524,27.414],[128.609,27.359]]]},"properties":{"NAME":null,"SUBJECTO":null,"BORDERPRECISION":1}},{"type":"Feature","geometry":{"type":"Polygon","coordinates":[[[129.992,28.282],[130.032,28.353],[129.943,28.322],[129.992,28.282]]]},"properties":{"NAME":null,"SUBJECTO":null,"BORDERPRECISION":1}},{"type":"Feature","geometry":{"type":"Polygon","coordinates":[[[129.336,28.075],[129.34,28.111],[129.224,28.184],[129.219,28.098],[129.336,28.075]]]},"properties":{"NAME":null,"SUBJECTO":null,"BORDERPRECISION":1}},{"type":"Feature","geometry":{"type":"Polygon","coordinates":[[[129.733,29.61],[129.753,29.648],[129.71,29.652],[129.733,29.61]]]},"properties":{"NAME":null,"SUBJECTO":null,"BORDERPRECISION":1}},{"type":"Feature","geometry":{"type":"Polygon","coordinates":[[[83.685,18.083],[85.113,19.442],[86.119,19.807],[87.641,21.563],[90.157,21.734],[90.905,22.561],[91.571,22.543],[93.424,25.017],[93.773,26.5],[93.074,26.849],[89.759,25.977],[87.926,26.064],[86.181,26.413],[83.245,27.389],[81.957,27.817],[78.869,29.326],[74.34,31.476],[68.191,27.308],[68.123,26.215],[68.533,25.464],[67.486,23.928],[68.791,23.029],[69.126,21.969],[70.21,20.948],[71.024,20.657],[72.121,21.155],[73.113,20.827],[74.34,21.706],[75.228,21.296],[77.892,22.048],[78.302,21.501],[75.911,20.681],[75.979,19.793],[79.054,18.905],[79.874,19.11],[80.625,20.135],[80.693,22.321],[81.103,23.277],[82.606,23.209],[83.153,21.706],[84.246,21.364],[83.685,18.083]]]},"properties":{"NAME":"Mauryan Empire","SUBJECTO":"Mauryan Empire","BORDERPRECISION":1}},{"type":"Feature","geometry":{"type":"Polygon","coordinates":[[[10.155,64.099],[7.989,62.94],[5.149,61.741],[5.096,60.264],[5.806,59.949],[5.615,58.455],[8.154,58.09],[10.549,59.379],[13.302,55.301],[14.653,56.121],[15.771,56.033],[16.744,58.312],[19.037,59.863],[17.146,60.953],[17.832,62.457],[15.43,61.866],[11.528,61.898],[10.155,64.099]]]},"properties":{"NAME":null,"SUBJECTO":null,"BORDERPRECISION":1}},{"type":"Feature","geometry":{"type":"Polygon","coordinates":[[[18.974,52.737],[19.4,54.281],[18.35,54.834],[15.086,54.004],[15.471,53.796],[17.564,52.591],[18.974,52.737]]]},"properties":{"NAME":"Pomeranian culture ","SUBJECTO":"Pomeranian culture ","BORDERPRECISION":1}},{"type":"Feature","geometry":{"type":"Polygon","coordinates":[[[21.163,54.899],[19.818,54.462],[21.482,54.436],[21.163,54.899]]]},"properties":{"NAME":"Sambian-Nothangian culture","SUBJECTO":"Sambian-Nothangian culture","BORDERPRECISION":1}},{"type":"Feature","geometry":{"type":"Polygon","coordinates":[[[15.471,53.796],[15.099,53.092],[16.331,52.039],[16.449,51.275],[17.887,50.628],[18.415,49.555],[21.144,49.764],[22.435,50.535],[25.105,48.826],[25.721,49.612],[24.489,51.385],[23.315,51.206],[20.986,52.616],[18.974,52.737],[17.564,52.591],[15.471,53.796]]]},"properties":{"NAME":"Bell-shaped burials culture","SUBJECTO":"Bell-shaped burials culture","BORDERPRECISION":1}},{"type":"Feature","geometry":{"type":"Polygon","coordinates":[[[18.974,52.737],[20.986,52.616],[21.863,53.07],[21.482,54.436],[19.818,54.462],[19.4,54.281],[18.974,52.737]]]},"properties":{"NAME":"Western Masurian culture","SUBJECTO":"Western Masurian culture","BORDERPRECISION":1}},{"type":"Feature","geometry":{"type":"Polygon","coordinates":[[[21.482,54.436],[21.863,53.07],[20.986,52.616],[23.315,51.206],[24.489,51.385],[24.782,51.531],[25.056,51.976],[23.916,54.881],[21.98,54.991],[21.173,54.919],[21.163,54.899],[21.482,54.436]]]},"properties":{"NAME":"Eastern Masurian culture","SUBJECTO":"Eastern Masurian culture","BORDERPRECISION":1}},{"type":"Feature","geometry":{"type":"Polygon","coordinates":[[[21.98,54.991],[22.816,56.144],[21.863,57.597],[21.07,56.846],[21.173,54.919],[21.98,54.991]]]},"properties":{"NAME":"Curonians","SUBJECTO":"Curonians","BORDERPRECISION":1}},{"type":"Feature","geometry":{"type":"Polygon","coordinates":[[[25.056,51.976],[27.775,52.314],[29.707,53.297],[28.978,54.619],[29.699,55.657],[25.721,57.004],[24.31,57.1],[21.863,57.597],[22.816,56.144],[21.98,54.991],[23.916,54.881],[25.056,51.976]]]},"properties":{"NAME":"Brushed Pottery culture","SUBJECTO":"Brushed Pottery culture","BORDERPRECISION":1}},{"type":"Feature","geometry":{"type":"Polygon","coordinates":[[[24.782,51.531],[26.22,50.943],[27.804,50.925],[30.592,50.16],[31.556,50.903],[32.059,52.116],[31.795,52.875],[29.707,53.297],[27.775,52.314],[25.056,51.976],[24.782,51.531]]]},"properties":{"NAME":"Milograd culture","SUBJECTO":"Milograd culture","BORDERPRECISION":1}},{"type":"Feature","geometry":{"type":"Polygon","coordinates":[[[29.707,53.297],[31.795,52.875],[32.059,52.116],[31.556,50.903],[34.905,51.476],[38.309,53.652],[36.959,54.29],[38.456,55.935],[36.725,56.683],[33.732,56.732],[29.699,55.657],[28.978,54.619],[29.707,53.297]]]},"properties":{"NAME":"Plain-Pottery culture","SUBJECTO":"Plain-Pottery culture","BORDERPRECISION":1}},{"type":"Feature","geometry":{"type":"Polygon","coordinates":[[[37.774,44.745],[40.252,43.268],[41.41,42.788],[41.68,41.793],[44.484,41.45],[44.826,40.767],[46.465,40.631],[46.911,40.13],[47.695,40.426],[49.669,40.24],[49.807,40.581],[47.565,43.008],[46.846,44.446],[47.556,45.453],[49.535,46.542],[51.369,47.09],[53.185,46.865],[52.61,45.4],[51.513,45.373],[50.874,44.626],[51.171,43.718],[52.52,42.073],[53.985,42.106],[54.818,40.88],[53.257,40.765],[52.845,40.18],[54.071,38.897],[53.985,37.518],[59.247,38.776],[62.581,39.887],[65.813,42.211],[67.026,42.514],[67.834,42.009],[68.533,39.811],[70.514,36.668],[73.793,34.345],[74.34,31.476],[78.869,29.326],[76.604,31.042],[74.227,34.179],[74.751,36.532],[75.6,37.537],[80.535,36.168],[84.397,35.394],[83.245,27.389],[86.181,26.413],[87.926,26.064],[89.759,25.977],[93.074,26.849],[93.773,26.5],[93.424,25.017],[91.571,22.543],[92.176,20.887],[93.334,20.025],[94.054,19.061],[94.465,17.264],[94.143,16.215],[95.33,15.678],[96.469,16.513],[97.573,16.445],[97.823,14.616],[98.486,13.112],[98.738,11.435],[98.633,10.101],[98.177,8.6],[99.025,7.871],[100.139,6.177],[100.664,3.904],[101.336,2.781],[103.428,1.381],[104.176,1.389],[103.308,3.026],[103.342,4.805],[101.56,6.74],[100.615,6.979],[100.132,8.532],[99.071,9.898],[99.895,12.079],[100.872,12.679],[101.919,12.585],[102.658,12.066],[103.04,10.898],[104.979,9.981],[104.742,8.494],[106.482,9.552],[106.704,10.448],[107.412,10.367],[109.073,11.635],[109.307,12.906],[108.786,15.091],[108.236,16.08],[106.433,17.55],[105.533,18.844],[105.843,19.702],[106.807,20.905],[107.9,21.479],[109.117,21.399],[110.077,20.867],[111.086,21.479],[112.75,21.756],[113.717,22.482],[116.341,22.913],[116.452,23.25],[116.493,24.234],[117.176,25.259],[114.97,26.009],[107.133,28.675],[105.232,27.999],[102.132,28.023],[101.651,29.532],[103.62,34.039],[104.739,36.6],[104.396,37.218],[106.043,37.561],[106.798,39.139],[107.036,40.704],[107.622,42.09],[109.083,42.118],[113.318,41.596],[118.546,41.425],[122.5,41.81],[124.091,41.267],[124.104,39.885],[125.296,39.364],[124.736,38.28],[125.269,37.485],[126.372,37.63],[126.397,37.599],[126.659,37.222],[126.73,37.139],[126.767,37.097],[126.793,37.013],[126.797,36.944],[126.507,36.911],[126.477,36.923],[126.357,36.946],[126.312,36.929],[126.186,36.864],[126.138,36.697],[126.235,36.683],[126.293,36.658],[126.334,36.639],[126.371,36.592],[126.398,36.401],[126.622,35.944],[126.614,35.905],[126.525,35.669],[126.525,35.579],[126.354,34.694],[126.381,34.547],[126.501,34.331],[126.671,34.414],[126.834,34.435],[126.992,34.546],[127.226,34.711],[127.577,34.886],[127.638,34.901],[127.661,34.906],[127.868,34.917],[127.916,34.88],[128.32,34.948],[128.38,35.005],[128.978,35.089],[129.25,37.009],[128.27,38.42],[127.277,39.222],[127.672,39.866],[129.478,40.682],[129.641,41.656],[132.182,43.195],[132.953,42.67],[134.139,42.993],[136.034,44.398],[137.721,45.997],[140.081,48.503],[140.323,50.518],[141.257,52.103],[141.047,52.69],[134.87,52.009],[127.336,49.977],[119.936,51.258],[116.707,54.659],[114.016,59.547],[107.962,59.818],[99.485,55.659],[99.537,55.281],[93.7,56.485],[78.362,56.41],[65.312,55.047],[59.094,56.432],[53.976,57.709],[46.106,57.709],[32.517,60.932],[29.019,61.771],[21.226,62.418],[21.56,60.512],[23.665,59.836],[25.581,60.262],[28.435,60.337],[27.702,59.298],[25.721,59.46],[23.416,59.119],[24.31,57.1],[25.721,57.004],[29.699,55.657],[33.732,56.732],[36.725,56.683],[38.456,55.935],[36.959,54.29],[38.309,53.652],[34.905,51.476],[31.556,50.903],[30.592,50.16],[27.804,50.925],[26.22,50.943],[24.782,51.531],[24.489,51.385],[25.721,49.612],[25.105,48.826],[22.435,50.535],[21.144,49.764],[18.415,49.555],[17.887,50.628],[16.449,51.275],[16.331,52.039],[15.099,53.092],[15.471,53.796],[15.086,54.004],[14.473,53.877],[12.653,54.321],[11.408,53.859],[9.421,54.976],[10.147,55.765],[8.183,56.431],[8.848,53.75],[7.166,53.592],[4.641,52.756],[4.264,52.071],[1.589,50.822],[1.275,50.004],[0.033,49.334],[-1.892,49.526],[-3.955,47.904],[-2.005,47.043],[-1.075,46.015],[-1.561,43.524],[-3.417,43.376],[-7.636,43.721],[-9.271,43.049],[-8.644,42.42],[-8.694,40.992],[-9.549,38.775],[-8.854,38.5],[-8.667,37.121],[-7.228,37.226],[-3.337,39.231],[-0.161,39.886],[0.879,41.022],[3.129,41.857],[3.002,42.771],[4.078,43.487],[6.523,43.151],[8.672,44.417],[8.925,45.092],[10.339,45.025],[11.215,43.408],[12.345,42.655],[13.777,43.183],[12.345,44.301],[12.176,45.214],[13.156,45.727],[13.895,44.759],[14.946,44.927],[15.412,43.935],[16.992,43.323],[19.607,41.762],[21.727,41.899],[23.985,42.537],[25.218,42.885],[26.311,44.32],[28.037,44.375],[28.221,45.484],[29.616,45.41],[30.833,46.577],[33.639,45.927],[33.559,44.936],[35.032,45.534],[35.212,46.637],[37.773,48.642],[39.784,48.776],[40.32,48.239],[39.248,45.961],[37.774,44.745]]]},"properties":{"NAME":null,"SUBJECTO":null,"BORDERPRECISION":1}},{"type":"Feature","geometry":{"type":"Polygon","coordinates":[[[-73.952,-9.041],[-77.427,-8.856],[-77.64,-9.547],[-77.161,-10.557],[-76.045,-11.381],[-74.121,-10.463],[-73.952,-9.041]]]},"properties":{"NAME":"Chavin","SUBJECTO":"Chavin","BORDERPRECISION":1}},{"type":"Feature","geometry":{"type":"Polygon","coordinates":[[[83.245,27.389],[84.397,35.394],[80.535,36.168],[75.6,37.537],[74.751,36.532],[74.227,34.179],[76.604,31.042],[78.869,29.326],[81.957,27.817],[83.245,27.389]]]},"properties":{"NAME":"Zhangzhung Kingdom","SUBJECTO":"Zhangzhung Kingdom","BORDERPRECISION":1}}]}
