{"type":"FeatureCollection", "features": [
{"type":"Feature","geometry":{"type":"Polygon","coordinates":[[[120.622,21.925],[121.325,23.4],[121.593,24.646],[120.857,24.809],[120.021,23.62],[120.622,21.925]]]},"properties":{"NAME":"Dapenkeng culture","SUBJECTO":"Dakapeng culture","BORDERPRECISION":1}},
{"type":"Feature","geometry":{"type":"MultiPolygon","coordinates":[[[[99.872,2.638],[98.146,4.07],[97.384,5.18],[96.187,5.146],[95.561,4.534],[96.72,3.705],[97.597,2.251],[98.601,1.707],[99.113,0.221],[99.697,-0.152],[100.65,-1.631],[100.812,-2.336],[102.462,-4.182],[104.568,-6.071],[105.728,-5.827],[105.711,-4.105],[105.943,-3.215],[104.352,-1.89],[104.298,-1.363],[103.238,-0.659],[103.722,0.015],[102.472,0.623],[101.06,2.081],[99.872,2.638]]],[[[111.12,1.27],[109.282,1.883],[108.814,0.808],[109.179,-0.869],[109.941,-1.643],[110.102,-3.079],[112.795,-2.971],[114.712,-4.206],[115.568,-3.804],[116.349,-2.417],[116.046,-1.934],[117.046,-0.935],[117.534,0.611],[118.517,1.166],[117.074,3.507],[118.391,4.374],[119.043,5.17],[116.596,6.899],[114.878,4.856],[113.815,4.263],[112.759,3.009],[111.372,2.599],[111.12,1.27]]],[[[113.073,-7.877],[112.275,-7.027],[111.045,-6.852],[110.027,-7.044],[108.556,-6.921],[106.945,-6.026],[106.024,-6.081],[105.633,-6.755],[106.484,-7.503],[108.16,-7.856],[109.037,-7.72],[110.778,-8.32],[112.414,-8.488],[113.073,-7.877]]],[[[120.305,14.575],[121.009,13.656],[121.729,14.108],[121.242,15.308],[122.396,17.114],[122.028,18.009],[121.036,18.528],[120.393,18.044],[120.303,16.417],[119.772,15.47],[120.305,14.575]]],[[[121.883,10.627],[122.897,11.15],[121.994,11.758],[121.883,10.627]]],[[[125.955,6.652],[126.322,7.149],[125.934,9.175],[123.465,7.791],[124.224,6.09],[125.073,5.723],[125.955,6.652]]]]},"properties":{"NAME":"Austronesians","SUBJECTO":"Austronesians","BORDERPRECISION":1}},
{"type":"Feature","geometry":{"type":"MultiPolygon","coordinates":[[[[175.308,-37.321],[174.217,-35.337],[173.166,-35.421],[174.765,-37.297],[174.655,-38.983],[173.805,-39.42],[175.354,-40.3],[176.011,-41.255],[177.157,-39.854],[178.408,-38.771],[177.528,-38.204],[175.308,-37.321]]],[[[172.063,-43.923],[174.234,-42.011],[173.264,-41.544],[171.458,-41.993],[171.024,-42.887],[168.416,-44.221],[167.137,-45.2],[166.523,-46.233],[169.399,-46.71],[170.612,-45.946],[171.378,-44.338],[172.063,-43.923]]]]},"properties":{"NAME":null,"SUBJECTO":null,"BORDERPRECISION":1}},
{"type":"Feature","geometry":{"type":"Polygon","coordinates":[[[-24.219,65.534],[-21.955,65.378],[-22.373,63.773],[-18.642,63.324],[-14.821,64.195],[-13.647,65.495],[-16.922,65.978],[-24.219,65.534]]]},"properties":{"NAME":null,"SUBJECTO":null,"BORDERPRECISION":1}},
{"type":"Feature","geometry":{"type":"Polygon","coordinates":[[[146.713,-43.722],[147.815,-42.965],[148.27,-41.093],[146.382,-41.308],[144.776,-40.843],[145.723,-43.24],[146.713,-43.722]]]},"properties":{"NAME":"Aboriginal Tasmanians","SUBJECTO":"Aboriginal Tasmanians","BORDERPRECISION":1}},
{"type":"Feature","geometry":{"type":"Polygon","coordinates":[[[-26.787,71.558],[-23.754,70.59],[-21.726,71.405],[-25.073,72.634],[-24.076,73.756],[-20.33,73.42],[-19.194,75.444],[-21.183,76.697],[-18.253,77.3],[-20.777,77.969],[-20.879,78.818],[-14.202,81.21],[-22.053,81.54],[-22.432,82.743],[-32.513,83.577],[-49.648,82.478],[-61.122,81.798],[-61.112,81.182],[-67.143,80.562],[-65.485,79.158],[-72.383,78.526],[-71.184,77.26],[-67.037,75.936],[-63.651,76.38],[-58.636,75.793],[-54.73,73.038],[-55.626,71.73],[-51.72,71.59],[-50.573,69.866],[-50.477,67.482],[-52.303,66.909],[-53.103,65.873],[-52.078,65.372],[-51.366,63.726],[-49.857,62.967],[-48.915,61.421],[-43.144,59.819],[-42.271,62.194],[-40.516,63.782],[-39.992,65.533],[-35.972,65.847],[-34.433,66.384],[-32.956,67.641],[-26.964,68.502],[-22.732,69.774],[-24.585,70.304],[-28.384,70.458],[-26.787,71.558]]]},"properties":{"NAME":null,"SUBJECTO":null,"BORDERPRECISION":1}},
{"type":"Feature","geometry":{"type":"MultiPolygon","coordinates":[[[[-73.112,-72.749],[-70.021,-72.672],[-68.398,-71.127],[-70.33,-68.963],[-71.798,-69.736],[-72.107,-71.05],[-75.275,-71.668],[-73.112,-72.749]]],[[[-102.551,-72.131],[-97.142,-72.672],[-97.22,-71.822],[-102.551,-72.131]]],[[[-55.185,-80.94],[-44.831,-80.322],[-44.213,-78.39],[-48.849,-78.081],[-55.185,-80.94]]],[[[169.769,-83.418],[162.015,-81.66],[159.315,-80.027],[163.643,-78.661],[162.346,-75.107],[164.616,-74.172],[168.975,-73.239],[170.729,-71.904],[167.635,-70.865],[160.599,-70.221],[157.307,-69.156],[151.093,-68.886],[146.875,-67.997],[145.586,-67.223],[141.157,-66.722],[134.205,-66.18],[130.272,-66.253],[129.01,-67.03],[122.458,-66.645],[118.286,-67.07],[113.015,-65.763],[110.607,-66.059],[109.404,-66.71],[102.631,-65.926],[99.654,-66.549],[90.855,-66.607],[85.523,-66.916],[81.814,-67.302],[78.26,-68.384],[76.869,-69.311],[72.542,-70.238],[70.301,-72.015],[67.365,-71.706],[67.513,-70.464],[68.951,-69.889],[69.773,-68.636],[69.374,-67.843],[62.806,-67.611],[56.627,-66.942],[55.142,-65.963],[52.452,-65.988],[48.967,-66.973],[47.305,-67.775],[44.797,-67.745],[39.647,-68.934],[38.332,-70.029],[33.541,-68.542],[32.748,-69.35],[23.707,-70.586],[17.603,-70.084],[12.658,-70.315],[10.34,-70.702],[8.485,-70.084],[0.681,-71.32],[-4.882,-71.281],[-7.2,-70.895],[-11.141,-71.59],[-11.828,-72.323],[-16.396,-73.445],[-14.451,-74.065],[-17.168,-74.758],[-18.405,-75.686],[-23.582,-75.918],[-33.163,-77.386],[-36.408,-79.163],[-29.568,-79.224],[-28.913,-80.476],[-38.031,-80.94],[-43.826,-81.79],[-60.207,-82.331],[-74.889,-80.708],[-76.589,-79.395],[-80.761,-78.236],[-74.502,-78.081],[-78.598,-76.613],[-70.562,-76.69],[-64.457,-75.686],[-61.367,-73.909],[-60.826,-72.749],[-61.676,-70.818],[-63.839,-68.654],[-65.153,-68.5],[-65.385,-67.341],[-61.135,-64.868],[-57.271,-63.709],[-58.121,-63.4],[-62.912,-64.713],[-66.853,-66.8],[-67.084,-68.654],[-68.784,-69.813],[-67.084,-71.822],[-67.625,-72.749],[-75.584,-73.754],[-81.766,-74.024],[-88.565,-73.252],[-99.788,-72.998],[-101.88,-74.099],[-100.045,-75.31],[-105.642,-75.068],[-110.557,-75.303],[-113.238,-74.321],[-128.978,-74.913],[-134.773,-74.643],[-140.568,-75.261],[-146.672,-76.111],[-146.146,-77.457],[-149.995,-77.733],[-154.167,-77.115],[-158.185,-77.811],[-154.554,-79.124],[-148.604,-79.665],[-145.668,-80.515],[-148.836,-81.365],[-154.477,-81.056],[-152.081,-82.601],[-153.31,-83.942],[-148.759,-85.074],[-156.563,-85.46],[-167.226,-84.765],[-180,-84.322],[-180,-85.322],[-180,-86.322],[-180,-87.322],[-180,-88.322],[-180,-89.322],[-180,-90],[-179.204,-90],[-178.204,-90],[-177.204,-90],[-176.204,-90],[-175.204,-90],[-174.204,-90],[-173.204,-90],[-172.204,-90],[-171.204,-90],[-170.204,-90],[-169.204,-90],[-168.204,-90],[-167.204,-90],[-166.204,-90],[-165.204,-90],[-164.204,-90],[-163.204,-90],[-162.204,-90],[-161.204,-90],[-160.204,-90],[-159.204,-90],[-158.204,-90],[-157.204,-90],[-156.204,-90],[-155.204,-90],[-154.204,-90],[-153.204,-90],[-152.204,-90],[-151.204,-90],[-150.204,-90],[-149.204,-90],[-148.204,-90],[-147.204,-90],[-146.204,-90],[-145.204,-90],[-144.204,-90],[-143.204,-90],[-142.204,-90],[-141.204,-90],[-140.204,-90],[-139.204,-90],[-138.204,-90],[-137.204,-90],[-136.204,-90],[-135.204,-90],[-134.204,-90],[-133.204,-90],[-132.204,-90],[-131.204,-90],[-130.204,-90],[-129.204,-90],[-128.204,-90],[-127.204,-90],[-126.204,-90],[-125.204,-90],[-124.204,-90],[-123.204,-90],[-122.204,-90],[-121.204,-90],[-120.204,-90],[-119.204,-90],[-118.204,-90],[-117.204,-90],[-116.204,-90],[-115.204,-90],[-114.204,-90],[-113.204,-90],[-112.204,-90],[-111.204,-90],[-110.204,-90],[-109.204,-90],[-108.204,-90],[-107.204,-90],[-106.204,-90],[-105.204,-90],[-104.204,-90],[-103.204,-90],[-102.204,-90],[-101.204,-90],[-100.204,-90],[-99.204,-90],[-98.204,-90],[-97.204,-90],[-96.204,-90],[-95.204,-90],[-94.204,-90],[-93.204,-90],[-92.204,-90],[-91.204,-90],[-90.204,-90],[-89.204,-90],[-88.204,-90],[-87.204,-90],[-86.204,-90],[-85.204,-90],[-84.204,-90],[-83.204,-90],[-82.204,-90],[-81.204,-90],[-80.204,-90],[-79.204,-90],[-78.204,-90],[-77.204,-90],[-76.204,-90],[-75.204,-90],[-74.204,-90],[-73.204,-90],[-72.204,-90],[-71.204,-90],[-70.204,-90],[-69.204,-90],[-68.204,-90],[-67.204,-90],[-66.204,-90],[-65.204,-90],[-64.204,-90],[-63.204,-90],[-62.204,-90],[-61.204,-90],[-60.204,-90],[-59.204,-90],[-58.204,-90],[-57.204,-90],[-56.204,-90],[-55.204,-90],[-54.204,-90],[-53.204,-90],[-52.204,-90],[-51.204,-90],[-50.204,-90],[-49.204,-90],[-48.204,-90],[-47.204,-90],[-46.204,-90],[-45.204,-90],[-44.204,-90],[-43.204,-90],[-42.204,-90],[-41.204,-90],[-40.204,-90],[-39.204,-90],[-38.204,-90],[-37.204,-90],[-36.204,-90],[-35.204,-90],[-34.204,-90],[-33.204,-90],[-32.204,-90],[-31.204,-90],[-30.204,-90],[-29.204,-90],[-28.204,-90],[-27.204,-90],[-26.204,-90],[-25.204,-90],[-24.204,-90],[-23.204,-90],[-22.204,-90],[-21.204,-90],[-20.204,-90],[-19.204,-90],[-18.204,-90],[-17.204,-90],[-16.204,-90],[-15.204,-90],[-14.204,-90],[-13.204,-90],[-12.204,-90],[-11.204,-90],[-10.204,-90],[-9.204,-90],[-8.204,-90],[-7.204,-90],[-6.204,-90],[-5.204,-90],[-4.204,-90],[-3.204,-90],[-2.204,-90],[-1.204,-90],[-0.204,-90],[0.778,-90],[1.778,-90],[2.778,-90],[3.778,-90],[4.778,-90],[5.778,-90],[6.778,-90],[7.778,-90],[8.778,-90],[9.778,-90],[10.778,-90],[11.778,-90],[12.778,-90],[13.778,-90],[14.778,-90],[15.778,-90],[16.778,-90],[17.778,-90],[18.778,-90],[19.778,-90],[20.778,-90],[21.778,-90],[22.778,-90],[23.778,-90],[24.778,-90],[25.778,-90],[26.778,-90],[27.778,-90],[28.778,-90],[29.778,-90],[30.778,-90],[31.778,-90],[32.778,-90],[33.778,-90],[34.778,-90],[35.778,-90],[36.778,-90],[37.778,-90],[38.778,-90],[39.778,-90],[40.778,-90],[41.778,-90],[42.778,-90],[43.778,-90],[44.778,-90],[45.778,-90],[46.778,-90],[47.778,-90],[48.778,-90],[49.778,-90],[50.778,-90],[51.778,-90],[52.778,-90],[53.778,-90],[54.778,-90],[55.778,-90],[56.778,-90],[57.778,-90],[58.778,-90],[59.778,-90],[60.778,-90],[61.778,-90],[62.778,-90],[63.778,-90],[64.778,-90],[65.778,-90],[66.778,-90],[67.778,-90],[68.778,-90],[69.778,-90],[70.778,-90],[71.778,-90],[72.778,-90],[73.778,-90],[74.778,-90],[75.778,-90],[76.778,-90],[77.778,-90],[78.778,-90],[79.778,-90],[80.778,-90],[81.778,-90],[82.778,-90],[83.778,-90],[84.778,-90],[85.778,-90],[86.778,-90],[87.778,-90],[88.778,-90],[89.778,-90],[89.796,-90],[90.778,-90],[91.778,-90],[92.778,-90],[93.778,-90],[94.778,-90],[95.778,-90],[96.778,-90],[97.778,-90],[98.778,-90],[99.778,-90],[100.778,-90],[101.778,-90],[102.778,-90],[103.778,-90],[104.778,-90],[105.778,-90],[106.778,-90],[107.778,-90],[108.778,-90],[109.778,-90],[110.778,-90],[111.778,-90],[112.778,-90],[113.778,-90],[114.778,-90],[115.778,-90],[116.778,-90],[117.778,-90],[118.778,-90],[119.778,-90],[120.778,-90],[121.778,-90],[122.778,-90],[123.778,-90],[124.778,-90],[125.778,-90],[126.778,-90],[127.778,-90],[128.778,-90],[129.778,-90],[130.778,-90],[131.778,-90],[132.778,-90],[133.778,-90],[134.778,-90],[135.778,-90],[136.778,-90],[137.778,-90],[138.778,-90],[139.778,-90],[140.778,-90],[141.778,-90],[142.778,-90],[143.778,-90],[144.778,-90],[145.778,-90],[146.778,-90],[147.778,-90],[148.778,-90],[149.778,-90],[150.778,-90],[151.778,-90],[152.778,-90],[153.778,-90],[154.778,-90],[155.778,-90],[156.778,-90],[157.778,-90],[158.778,-90],[159.778,-90],[160.778,-90],[161.778,-90],[162.778,-90],[163.778,-90],[164.778,-90],[165.778,-90],[166.778,-90],[167.778,-90],[168.778,-90],[169.778,-90],[170.778,-90],[171.778,-90],[172.778,-90],[173.778,-90],[174.778,-90],[175.778,-90],[176.778,-90],[177.778,-90],[178.778,-90],[180,-90],[180,-89.319],[180,-88.319],[180,-87.319],[180,-86.319],[180,-85.319],[180,-84.34],[169.769,-83.418]]]]},"properties":{"NAME":null,"SUBJECTO":null,"BORDERPRECISION":1}},
{"type":"Feature","geometry":{"type":"MultiPolygon","coordinates":[[[[140.87,-2.795],[137.854,-1.614],[136.271,-2.418],[135.246,-3.539],[134.283,-2.855],[133.907,-1.006],[132.254,-0.527],[131.211,-1.025],[132.719,-2.934],[132.713,-3.888],[134.041,-3.948],[137.385,-5.123],[137.824,-5.427],[139.156,-7.725],[140.948,-9.274],[142.607,-9.377],[143.437,-8.358],[144.38,-7.758],[145.82,-8.098],[146.646,-9.279],[147.874,-10.179],[149.783,-10.41],[149.83,-9.711],[148.589,-9.16],[147.376,-7.796],[146.909,-6.895],[147.376,-6.125],[145.593,-5.423],[145.728,-4.997],[143.446,-3.61],[140.87,-2.795]]],[[[149.554,-6.406],[152.059,-5.498],[151.588,-4.902],[149.554,-6.406]]],[[[123.492,-10.352],[125.212,-9.395],[125.08,-8.772],[123.665,-9.748],[123.492,-10.352]]],[[[120.432,0.636],[119.914,0.54],[118.684,-2.901],[119.461,-3.808],[119.477,-5.804],[120.248,-5.586],[120.144,-3.076],[121.873,-4.96],[122.641,-4.284],[122.258,-3.211],[121.265,-2.101],[122.223,-1.654],[121.461,-0.989],[120.507,-1.448],[119.873,-0.465],[120.432,0.636]]]]},"properties":{"NAME":null,"SUBJECTO":null,"BORDERPRECISION":1}},
{"type":"Feature","geometry":{"type":"Polygon","coordinates":[[[13.252,79.801],[11.76,78.88],[15.099,77.115],[17.267,76.813],[19.116,78.455],[17.834,79.809],[13.252,79.801]]]},"properties":{"NAME":null,"SUBJECTO":null,"BORDERPRECISION":1}},
{"type":"Feature","geometry":{"type":"Polygon","coordinates":[[[-58.139,48.599],[-59.319,47.963],[-56.804,47.616],[-56.079,47.865],[-52.729,47.455],[-54.13,48.836],[-57.356,50.595],[-58.392,49.037],[-58.139,48.599]]]},"properties":{"NAME":null,"SUBJECTO":null,"BORDERPRECISION":1}},
{"type":"Feature","geometry":{"type":"Polygon","coordinates":[[[-68.749,-54.889],[-66.622,-55.07],[-68.305,-52.943],[-69.407,-52.566],[-70.333,-53.473],[-68.749,-54.889]]]},"properties":{"NAME":null,"SUBJECTO":null,"BORDERPRECISION":1}},
{"type":"Feature","geometry":{"type":"MultiPolygon","coordinates":[[[[56.96,73.357],[60.887,75.247],[66.548,75.98],[65.926,76.507],[59.018,75.799],[54.018,73.734],[56.96,73.357]]],[[[52.611,72.74],[51.482,71.845],[54.308,71.206],[55.518,72.478],[52.611,72.74]]]]},"properties":{"NAME":null,"SUBJECTO":null,"BORDERPRECISION":1}},
{"type":"Feature","geometry":{"type":"Polygon","coordinates":[[[8.576,3.067],[8.827,3.612],[8.478,3.557],[8.576,3.067]]]},"properties":{"NAME":null,"SUBJECTO":null,"BORDERPRECISION":1}},
{"type":"Feature","geometry":{"type":"MultiPolygon","coordinates":[[[[137.887,37.025],[136.668,36.667],[135.157,35.646],[132.663,35.381],[130.899,33.904],[134.427,34.628],[135.756,33.342],[136.734,34.874],[138.149,34.528],[139.538,35.29],[137.887,37.025]]],[[[130.579,30.907],[131.319,31.511],[131.831,32.693],[131.67,33.309],[130.427,33.674],[129.343,33.151],[130.579,30.907]]]]},"properties":{"NAME":"Jōmon","SUBJECTO":"Jōmon","BORDERPRECISION":1}},
{"type":"Feature","geometry":{"type":"Polygon","coordinates":[[[-78.262,-9.742],[-76.238,-13.502],[-76.242,-14.106],[-75.231,-15.222],[-73.117,-16.457],[-72.22,-15.426],[-72.003,-14.309],[-72.166,-12.947],[-73.364,-10.931],[-74.617,-9.978],[-76.388,-9.706],[-78.262,-9.742]]]},"properties":{"NAME":"Norte Chico","SUBJECTO":"Norte Chico","BORDERPRECISION":1}},
{"type":"Feature","geometry":{"type":"Polygon","coordinates":[[[43.295,35.669],[41.976,37.684],[40.473,37.851],[38.089,37.425],[36.082,36.622],[35.716,34.312],[37.238,33.85],[40.956,33.435],[41.154,35.127],[43.295,35.669]]]},"properties":{"NAME":"city-states","SUBJECTO":"city-states","BORDERPRECISION":1}},
{"type":"Feature","geometry":{"type":"Polygon","coordinates":[[[40.956,33.435],[41.95,32.209],[47.614,29.272],[47.911,29.89],[50.132,30.066],[49.307,31.816],[45.615,35.163],[43.295,35.669],[41.154,35.127],[40.956,33.435]]]},"properties":{"NAME":"Ur","SUBJECTO":"Ur","BORDERPRECISION":1}},
{"type":"Feature","geometry":{"type":"Polygon","coordinates":[[[50.132,30.066],[51.35,28.036],[52.891,27.052],[54.646,26.391],[55.9,27.105],[56.79,26.974],[57.255,25.793],[58.369,25.548],[58.352,27.464],[57.841,28.997],[56.564,29.678],[54.01,30.359],[49.307,31.816],[50.132,30.066]]]},"properties":{"NAME":"Elam","SUBJECTO":"Elam","BORDERPRECISION":1}},
{"type":"Feature","geometry":{"type":"Polygon","coordinates":[[[13.478,-8.486],[13.204,-9.637],[13.816,-10.976],[13.649,-12.197],[12.585,-13.464],[12.06,-15.594],[11.782,-15.868],[11.775,-17.596],[14.415,-22.268],[14.843,-25.622],[15.454,-27.616],[16.788,-29.139],[18.179,-31.805],[18.487,-34.398],[20.256,-34.623],[22.682,-34.103],[24.43,-34.335],[26.659,-33.847],[28.922,-32.298],[30.391,-30.814],[31.563,-29.21],[32.235,-28.744],[32.767,-27.517],[33.347,-25.304],[34.884,-24.722],[35.297,-23.825],[35.261,-22.274],[34.699,-20.572],[34.726,-19.86],[37.275,-17.713],[39.471,-16.717],[40.386,-15.736],[40.599,-14.401],[40.311,-11.345],[40.62,-10.766],[39.658,-9.796],[39.439,-7.924],[13.478,-8.486]]]},"properties":{"NAME":"Khoisan","SUBJECTO":"Khoisan","BORDERPRECISION":1}},
{"type":"Feature","geometry":{"type":"Polygon","coordinates":[[[32.648,29.852],[33.558,30.968],[32.077,31.014],[30.996,31.469],[29.359,30.811],[29.859,29.649],[30.05,27.996],[30.749,26.725],[31.108,24.995],[30.001,21.079],[30.171,19.977],[31.055,19.917],[31.278,19.972],[33.345,23.354],[33.737,24.5],[33.419,26.28],[32.318,29.54],[32.648,29.852]]]},"properties":{"NAME":"Egypt","SUBJECTO":"Egypt","BORDERPRECISION":1}},
{"type":"Feature","geometry":{"type":"Polygon","coordinates":[[[72.696,22.129],[73.231,23.721],[72.53,24.422],[70.074,25.475],[69.724,26.994],[70.308,28.047],[72.296,28.982],[78.843,28.631],[79.194,30.034],[78.843,30.736],[73.699,32.139],[70.776,32.022],[69.022,31.087],[67.619,28.982],[64.813,28.514],[63.293,26.878],[63.018,25.157],[66.621,25.317],[66.702,24.752],[68.791,23.029],[69.126,21.969],[70.21,20.948],[71.024,20.657],[72.121,21.155],[72.696,22.129]]]},"properties":{"NAME":"Indus valley civilization","SUBJECTO":"Indus valley civilization","BORDERPRECISION":1}},
{"type":"Feature","geometry":{"type":"Polygon","coordinates":[[[43.295,35.669],[45.615,35.163],[46.536,35.848],[44.272,37.848],[42.24,38.452],[41.976,37.684],[43.295,35.669]]]},"properties":{"NAME":"Hurrian Kingdoms","SUBJECTO":"Hurrian Kingdoms","BORDERPRECISION":1}},
{"type":"Feature","geometry":{"type":"Polygon","coordinates":[[[-78.614,2.119],[-78.984,1.297],[-80.086,0.818],[-80.339,-0.663],[-80.966,-1.033],[-80.357,-2.728],[-79.76,-2.786],[-77.174,-1.281],[-77.121,-0.484],[-75.898,0.846],[-78.614,2.119]]]},"properties":{"NAME":"Valdivia","SUBJECTO":"Valdivia","BORDERPRECISION":1}},
{"type":"Feature","geometry":{"type":"Polygon","coordinates":[[[30.171,19.977],[29.887,18.355],[30.529,17.601],[31.397,17.45],[32.994,18.657],[33.447,17.815],[34.516,17.991],[33.422,20.129],[32.642,19.903],[30.994,18.595],[31.055,19.917],[30.171,19.977]]]},"properties":{"NAME":"Kerma","SUBJECTO":"Kerma","BORDERPRECISION":1}},
{"type":"Feature","geometry":{"type":"MultiPolygon","coordinates":[[[[44.672,-16.236],[43.972,-17.553],[44.47,-20.17],[43.501,-21.494],[43.376,-22.632],[43.827,-23.413],[43.671,-24.227],[44.425,-25.312],[45.576,-25.621],[47.258,-24.766],[48.087,-22.044],[49.342,-18.228],[49.425,-17.198],[50.503,-15.314],[49.817,-12.831],[49.176,-12.266],[48.751,-13.418],[46.925,-15.36],[44.672,-16.236]]],[[[8.82,38.977],[9.479,39.144],[9.794,40.564],[9.306,41.184],[8.241,40.855],[8.82,38.977]]]]},"properties":{"NAME":"Hunters-gatherers","SUBJECTO":"Hunters-gatherers","BORDERPRECISION":1}},
{"type":"Feature","geometry":{"type":"Polygon","coordinates":[[[-7.428,55.064],[-8.59,54.203],[-9.891,52.194],[-9.819,51.435],[-6.406,52.214],[-6.443,53.899],[-6.018,55.093],[-7.428,55.064]]]},"properties":{"NAME":null,"SUBJECTO":null,"BORDERPRECISION":1}},
{"type":"Feature","geometry":{"type":"Polygon","coordinates":[[[22.87,38.837],[23.121,38.867],[23.638,38.523],[23.79,38.719],[23.242,39.044],[22.87,38.837]]]},"properties":{"NAME":null,"SUBJECTO":null,"BORDERPRECISION":1}},
{"type":"Feature","geometry":{"type":"Polygon","coordinates":[[[75.001,50.674],[74.381,47.572],[79.493,46.955],[82.934,46.905],[85.785,46.938],[90.577,47.206],[93.325,48.021],[97.406,51.168],[100.382,52.273],[101.913,53.974],[98.767,55.419],[93.07,56.27],[87.117,55.929],[80.91,53.038],[76.658,51.763],[75.001,50.674]]]},"properties":{"NAME":"Afanasevo","SUBJECTO":"Afanasevo","BORDERPRECISION":1}},
{"type":"Feature","geometry":{"type":"Polygon","coordinates":[[[59.102,38.475],[58.416,37.764],[58.844,36.777],[60.394,36.338],[62.097,37.02],[62.584,38.284],[61.134,38.985],[60.06,39.08],[59.102,38.475]]]},"properties":{"NAME":"Namazga","SUBJECTO":"Namazga","BORDERPRECISION":1}},
{"type":"Feature","geometry":{"type":"Polygon","coordinates":[[[80.563,5.932],[81.203,6.079],[81.866,7.085],[80.662,9.299],[79.675,8.805],[79.854,7.061],[80.563,5.932]]]},"properties":{"NAME":null,"SUBJECTO":null,"BORDERPRECISION":1}},
{"type":"Feature","geometry":{"type":"Polygon","coordinates":[[[109.43,18.097],[110.263,18.626],[110.617,20.017],[109.55,19.914],[108.577,19.187],[108.652,18.482],[109.43,18.097]]]},"properties":{"NAME":null,"SUBJECTO":null,"BORDERPRECISION":1}},
{"type":"Feature","geometry":{"type":"Polygon","coordinates":[[[33.78,35.208],[32.819,35.282],[32.603,34.615],[33.925,34.953],[33.78,35.208]]]},"properties":{"NAME":null,"SUBJECTO":null,"BORDERPRECISION":1}},
{"type":"Feature","geometry":{"type":"Polygon","coordinates":[[[24.693,34.94],[24.388,35.373],[23.529,35.57],[23.568,35.255],[24.324,35.208],[24.693,34.94]]]},"properties":{"NAME":"Minoan","SUBJECTO":"Minoan","BORDERPRECISION":1}},
{"type":"Feature","geometry":{"type":"Polygon","coordinates":[[[9.432,42.794],[8.609,42.487],[8.727,41.561],[9.453,42.048],[9.432,42.794]]]},"properties":{"NAME":null,"SUBJECTO":null,"BORDERPRECISION":1}},
{"type":"Feature","geometry":{"type":"MultiPolygon","coordinates":[[[[139.538,35.29],[139.808,35.007],[139.932,34.877],[140.964,36.956],[140.872,37.917],[141.496,38.422],[141.998,39.672],[141.153,40.865],[139.915,40.575],[139.746,38.68],[138.699,37.448],[137.887,37.025],[139.538,35.29]]],[[[140.013,41.382],[140.246,42.228],[141.928,42.501],[143.214,41.927],[143.848,42.775],[145.448,43.17],[145.059,43.786],[143.508,44.156],[141.875,45.435],[141.304,43.187],[139.712,42.478],[140.013,41.382]]]]},"properties":{"NAME":"Ainu","SUBJECTO":"Ainu","BORDERPRECISION":1}},
{"type":"Feature","geometry":{"type":"Polygon","coordinates":[[[139.808,35.007],[139.83,34.836],[139.932,34.877],[139.808,35.007]]]},"properties":{"NAME":null,"SUBJECTO":null,"BORDERPRECISION":1}},
{"type":"Feature","geometry":{"type":"Polygon","coordinates":[[[142.864,53.341],[141.767,53.272],[141.643,51.813],[142.153,50.89],[141.732,47.471],[142.49,47.902],[143.633,50.235],[142.944,51.617],[142.864,53.341]]]},"properties":{"NAME":null,"SUBJECTO":null,"BORDERPRECISION":1}},
{"type":"Feature","geometry":{"type":"Polygon","coordinates":[[[24.656,37.901],[25.318,37.402],[25.272,37.565],[24.763,38.003],[24.656,37.901]]]},"properties":{"NAME":"Cycladic","SUBJECTO":"Cycladic","BORDERPRECISION":1}},
{"type":"Feature","geometry":{"type":"Polygon","coordinates":[[[-82.177,22.366],[-79.735,21.672],[-78.728,21.617],[-78.45,20.969],[-77.291,20.704],[-77.461,19.871],[-75.519,19.907],[-74.345,20.323],[-75.604,21.013],[-77.34,21.512],[-79.76,22.759],[-81.431,23.137],[-82.177,22.366]]]},"properties":{"NAME":null,"SUBJECTO":null,"BORDERPRECISION":1}},
{"type":"Feature","geometry":{"type":"Polygon","coordinates":[[[-71.677,18.003],[-70.621,18.507],[-68.657,18.873],[-70.882,19.93],[-72.676,19.392],[-72.746,18.509],[-71.677,18.003]]]},"properties":{"NAME":null,"SUBJECTO":null,"BORDERPRECISION":1}},
{"type":"Feature","geometry":{"type":"Polygon","coordinates":[[[-66.906,17.936],[-65.967,18.027],[-65.952,18.472],[-67.055,18.546],[-66.906,17.936]]]},"properties":{"NAME":null,"SUBJECTO":null,"BORDERPRECISION":1}},
{"type":"Feature","geometry":{"type":"Polygon","coordinates":[[[-77.291,17.806],[-76.426,18.119],[-77.769,18.51],[-77.291,17.806]]]},"properties":{"NAME":null,"SUBJECTO":null,"BORDERPRECISION":1}},
{"type":"Feature","geometry":{"type":"Polygon","coordinates":[[[-70.674,62.862],[-65.94,61.79],[-66.496,63.077],[-64.474,63.744],[-67.614,65.912],[-62.845,65.614],[-61.211,66.635],[-68.665,68.716],[-66.668,69.186],[-69.463,69.96],[-71.253,71.351],[-73.275,71.161],[-75.322,72.548],[-80.489,73.037],[-81.532,73.688],[-88.099,73.636],[-89.639,72.782],[-89.997,71.541],[-87.949,71.351],[-87.948,70.385],[-82.269,69.86],[-78.713,70.011],[-73.185,68.296],[-72.305,67.264],[-75.789,65.197],[-73.164,64.574],[-70.674,62.862]]]},"properties":{"NAME":null,"SUBJECTO":null,"BORDERPRECISION":1}},
{"type":"Feature","geometry":{"type":"Polygon","coordinates":[[[-90.204,81.444],[-85.192,81.324],[-83.911,79.257],[-85.807,78.906],[-87.273,76.504],[-78.212,76.547],[-78.367,78.033],[-71.454,79.846],[-66.482,81.303],[-62.427,82.634],[-76.382,83.152],[-90.503,82.007],[-90.204,81.444]]]},"properties":{"NAME":null,"SUBJECTO":null,"BORDERPRECISION":1}},
{"type":"Feature","geometry":{"type":"Polygon","coordinates":[[[-114.473,72.625],[-117.22,72.857],[-118.986,72.034],[-117.314,71.475],[-117.568,69.992],[-113.152,68.596],[-110.448,68.653],[-106.854,69.451],[-104.188,68.898],[-101.808,69.136],[-101.055,70.031],[-103.864,70.701],[-105.313,72.65],[-108.986,72.73],[-111.726,72.331],[-114.473,72.625]]]},"properties":{"NAME":null,"SUBJECTO":null,"BORDERPRECISION":1}},
{"type":"Feature","geometry":{"type":"Polygon","coordinates":[[[-180,65.259],[-176.137,65.457],[-175.952,65.006],[-173.077,64.384],[-172.562,65.515],[-170.613,66.038],[-171.958,66.956],[-173.875,67.159],[-180,68.917],[-180,67.963],[-180,66.963],[-180,65.963],[-180,65.382],[-180,65.311],[-180,65.259]]]},"properties":{"NAME":null,"SUBJECTO":null,"BORDERPRECISION":1}},
{"type":"Feature","geometry":{"type":"Polygon","coordinates":[[[-90.204,80.659],[-96.433,79.933],[-92.702,78.434],[-89.121,78.344],[-86.997,79.445],[-90.204,80.659]]]},"properties":{"NAME":null,"SUBJECTO":null,"BORDERPRECISION":1}},
{"type":"Feature","geometry":{"type":"Polygon","coordinates":[[[-122.574,71.146],[-120.454,72.299],[-115.654,73.633],[-121.239,74.58],[-124.065,73.865],[-125.617,71.99],[-122.574,71.146]]]},"properties":{"NAME":null,"SUBJECTO":null,"BORDERPRECISION":1}},
{"type":"Feature","geometry":{"type":"Polygon","coordinates":[[[-90.204,76.282],[-92.224,75.947],[-91.867,74.789],[-88.144,74.569],[-80.349,74.616],[-81.703,75.875],[-86.618,75.432],[-90.204,76.282]]]},"properties":{"NAME":null,"SUBJECTO":null,"BORDERPRECISION":1}},
{"type":"Feature","geometry":{"type":"Polygon","coordinates":[[[-115.15,75.757],[-115.186,75.154],[-112.203,74.5],[-105.773,75.23],[-105.917,76.022],[-111.386,75.66],[-115.15,75.757]]]},"properties":{"NAME":null,"SUBJECTO":null,"BORDERPRECISION":1}},
{"type":"Feature","geometry":{"type":"Polygon","coordinates":[[[-85.157,63.185],[-82.11,64.644],[-85.558,65.864],[-86.243,64.542],[-85.157,63.185]]]},"properties":{"NAME":null,"SUBJECTO":null,"BORDERPRECISION":1}},
{"type":"Feature","geometry":{"type":"Polygon","coordinates":[[[-98.718,71.354],[-96.85,71.88],[-96.689,72.817],[-99.955,73.263],[-101.654,72.373],[-98.718,71.354]]]},"properties":{"NAME":null,"SUBJECTO":null,"BORDERPRECISION":1}},
{"type":"Feature","geometry":{"type":"Polygon","coordinates":[[[-123.902,48.471],[-123.861,49.158],[-125.719,50.409],[-127.385,50.05],[-125.967,49.174],[-123.902,48.471]]]},"properties":{"NAME":null,"SUBJECTO":null,"BORDERPRECISION":1}},
{"type":"Feature","geometry":{"type":"Polygon","coordinates":[[[-120.454,75.952],[-118.736,76.938],[-121.578,76.702],[-120.454,75.952]]]},"properties":{"NAME":null,"SUBJECTO":null,"BORDERPRECISION":1}},
{"type":"Feature","geometry":{"type":"Polygon","coordinates":[[[-99.68,77.792],[-99.892,78.658],[-102.569,79.016],[-104.162,78.298],[-101.168,78.269],[-99.68,77.792]]]},"properties":{"NAME":null,"SUBJECTO":null,"BORDERPRECISION":1}},
{"type":"Feature","geometry":{"type":"Polygon","coordinates":[[[-94.542,72.19],[-92.001,72.841],[-90.452,73.904],[-95.069,74.064],[-95.641,73.144],[-94.542,72.19]]]},"properties":{"NAME":null,"SUBJECTO":null,"BORDERPRECISION":1}},
{"type":"Feature","geometry":{"type":"Polygon","coordinates":[[[-99.944,75.084],[-98.002,75.162],[-97.817,76.476],[-101.885,76.333],[-99.944,75.084]]]},"properties":{"NAME":null,"SUBJECTO":null,"BORDERPRECISION":1}},
{"type":"Feature","geometry":{"type":"Polygon","coordinates":[[[-96.473,68.514],[-97.742,69.832],[-99.365,68.974],[-96.473,68.514]]]},"properties":{"NAME":null,"SUBJECTO":null,"BORDERPRECISION":1}},
{"type":"Feature","geometry":{"type":"Polygon","coordinates":[[[-96.602,77.998],[-95.097,78.438],[-97.31,78.822],[-98.437,78.661],[-96.602,77.998]]]},"properties":{"NAME":null,"SUBJECTO":null,"BORDERPRECISION":1}},
{"type":"Feature","geometry":{"type":"Polygon","coordinates":[[[-76.269,67.249],[-75.12,68.113],[-76.794,68.147],[-76.269,67.249]]]},"properties":{"NAME":null,"SUBJECTO":null,"BORDERPRECISION":1}},
{"type":"Feature","geometry":{"type":"Polygon","coordinates":[[[-153.226,57.366],[-154.189,57.631],[-154.593,57.145],[-153.878,56.941],[-153.226,57.366]]]},"properties":{"NAME":null,"SUBJECTO":null,"BORDERPRECISION":1}},
{"type":"Feature","geometry":{"type":"Polygon","coordinates":[[[-169.903,63.075],[-169.333,63.397],[-170.482,63.688],[-170.966,63.459],[-169.903,63.075]]]},"properties":{"NAME":null,"SUBJECTO":null,"BORDERPRECISION":1}},
{"type":"Feature","geometry":{"type":"Polygon","coordinates":[[[-93.938,76.398],[-94.195,76.899],[-96.809,76.92],[-95.873,76.513],[-93.938,76.398]]]},"properties":{"NAME":null,"SUBJECTO":null,"BORDERPRECISION":1}},
{"type":"Feature","geometry":{"type":"Polygon","coordinates":[[[-132.174,54.846],[-132.177,55.285],[-132.633,55.9],[-133.518,56.211],[-133.016,55.371],[-132.174,54.846]]]},"properties":{"NAME":null,"SUBJECTO":null,"BORDERPRECISION":1}},
{"type":"Feature","geometry":{"type":"Polygon","coordinates":[[[-109.661,77.95],[-113.01,77.923],[-113.024,77.602],[-110.62,77.537],[-109.661,77.95]]]},"properties":{"NAME":null,"SUBJECTO":null,"BORDERPRECISION":1}},
{"type":"Feature","geometry":{"type":"Polygon","coordinates":[[[-162.218,55.132],[-161.575,55.479],[-161.81,55.783],[-162.585,55.389],[-162.218,55.132]]]},"properties":{"NAME":null,"SUBJECTO":null,"BORDERPRECISION":1}},
{"type":"Feature","geometry":{"type":"Polygon","coordinates":[[[-155.783,18.946],[-154.948,19.483],[-155.931,20.284],[-156.163,19.808],[-155.783,18.946]]]},"properties":{"NAME":null,"SUBJECTO":null,"BORDERPRECISION":1}},
{"type":"Feature","geometry":{"type":"Polygon","coordinates":[[[-163.206,54.737],[-163.743,55.062],[-164.561,54.831],[-165.01,54.528],[-164.564,54.334],[-164.072,54.657],[-163.206,54.737]]]},"properties":{"NAME":null,"SUBJECTO":null,"BORDERPRECISION":1}},
{"type":"Feature","geometry":{"type":"Polygon","coordinates":[[[-135.325,58.093],[-136.3,58.18],[-136.596,57.905],[-135.115,57.675],[-135.325,58.093]]]},"properties":{"NAME":null,"SUBJECTO":null,"BORDERPRECISION":1}},
{"type":"Feature","geometry":{"type":"Polygon","coordinates":[[[-132.569,53.28],[-131.999,53.794],[-133.054,54.066],[-132.569,53.28]]]},"properties":{"NAME":null,"SUBJECTO":null,"BORDERPRECISION":1}},
{"type":"Feature","geometry":{"type":"Polygon","coordinates":[[[-134.821,56.916],[-135.002,57.326],[-135.466,57.229],[-134.821,56.916]]]},"properties":{"NAME":null,"SUBJECTO":null,"BORDERPRECISION":1}},
{"type":"Feature","geometry":{"type":"Polygon","coordinates":[[[-166.927,53.459],[-166.383,53.855],[-167.148,53.94],[-166.927,53.459]]]},"properties":{"NAME":null,"SUBJECTO":null,"BORDERPRECISION":1}},
{"type":"Feature","geometry":{"type":"Polygon","coordinates":[[[-156.507,20.599],[-156.119,20.79],[-156.716,21.069],[-156.507,20.599]]]},"properties":{"NAME":null,"SUBJECTO":null,"BORDERPRECISION":1}},
{"type":"Feature","geometry":{"type":"Polygon","coordinates":[[[-157.842,21.29],[-158.179,21.689],[-158.298,21.276],[-157.842,21.29]]]},"properties":{"NAME":null,"SUBJECTO":null,"BORDERPRECISION":1}},
{"type":"Feature","geometry":{"type":"Polygon","coordinates":[[[-167.865,53.323],[-168.223,53.59],[-168.374,53.235],[-167.865,53.323]]]},"properties":{"NAME":null,"SUBJECTO":null,"BORDERPRECISION":1}},
{"type":"Feature","geometry":{"type":"Polygon","coordinates":[[[-162.968,54.949],[-162.788,55.152],[-163.091,55.273],[-163.262,55.171],[-162.968,54.949]]]},"properties":{"NAME":null,"SUBJECTO":null,"BORDERPRECISION":1}},
{"type":"Feature","geometry":{"type":"Polygon","coordinates":[[[-50.225,-1.735],[-48.886,-1.421],[-48.402,-0.391],[-50.501,-0.262],[-50.225,-1.735]]]},"properties":{"NAME":null,"SUBJECTO":null,"BORDERPRECISION":1}},
{"type":"Feature","geometry":{"type":"Polygon","coordinates":[[[-61.114,10.822],[-61.809,10.725],[-61.207,10.118],[-61.114,10.822]]]},"properties":{"NAME":null,"SUBJECTO":null,"BORDERPRECISION":1}},
{"type":"Feature","geometry":{"type":"Polygon","coordinates":[[[74.209,14.753],[75.211,12.102],[76.075,10.554],[76.704,8.706],[77.9,8.258],[79.826,10.359],[79.711,11.445],[80.32,13.333],[80.136,14.489],[74.209,14.753]]]},"properties":{"NAME":"Dravidians","SUBJECTO":"Dravidians","BORDERPRECISION":1}},
{"type":"Feature","geometry":{"type":"Polygon","coordinates":[[[-14.51,28.05],[-13.881,28.199],[-14.147,28.391],[-14.51,28.05]]]},"properties":{"NAME":null,"SUBJECTO":null,"BORDERPRECISION":1}},
{"type":"Feature","geometry":{"type":"Polygon","coordinates":[[[39.439,-7.924],[39.566,-7.044],[38.922,-6.34],[39.267,-4.776],[40.234,-3.192],[42.44,-0.512],[43.724,0.8],[46.377,2.686],[-16.872,21.842],[-17.052,21.004],[-16.347,20.523],[-15.983,18.178],[-16.45,16.118],[-17.05,14.586],[-16.471,13.723],[-16.772,12.597],[-14.591,10.467],[-13.68,9.916],[-12.264,7.351],[-9.937,5.863],[-9.248,5.172],[-7.529,4.337],[-5,5.238],[-3.942,5.266],[-2.031,4.698],[1.558,6.237],[3.949,6.579],[5.153,5.642],[5.607,4.632],[6.844,4.292],[8.875,4.62],[9.923,2.824],[9.851,1.877],[9.203,-0.634],[8.815,-0.896],[9.656,-2.419],[11.773,-4.537],[13.478,-8.486],[39.439,-7.924]]]},"properties":{"NAME":"Bantu","SUBJECTO":"Bantu","BORDERPRECISION":1}},
{"type":"Feature","geometry":{"type":"Polygon","coordinates":[[[31.055,19.917],[30.994,18.595],[32.642,19.903],[33.422,20.129],[34.516,17.991],[33.447,17.815],[32.994,18.657],[31.397,17.45],[30.529,17.601],[29.887,18.355],[30.171,19.977],[30.001,21.079],[31.108,24.995],[30.749,26.725],[30.05,27.996],[29.859,29.649],[29.359,30.811],[26.143,31.491],[23.153,32.139],[21.673,32.816],[20.366,32.298],[20.117,30.957],[18.915,30.205],[17.422,30.996],[15.843,31.285],[15.01,32.363],[12.565,32.74],[10.413,33.631],[10.019,34.081],[11.125,35.241],[10.133,37.105],[8.637,36.885],[5.144,36.668],[1.058,36.462],[-2.035,35.055],[-4.593,35.151],[-5.929,35.728],[-7.004,33.875],[-8.314,33.338],[-9.219,32.58],[-9.813,31.289],[-9.663,29.955],[-11.576,28.229],[-12.866,27.857],[-13.629,26.591],[-14.367,26.119],[-14.82,24.733],[-15.714,23.873],[-16.872,21.842],[46.377,2.686],[48.472,5.201],[49.046,6.416],[50.779,9.368],[51.181,11.777],[50.697,11.948],[49.304,11.246],[47.391,11.159],[44.281,10.396],[43.368,11.456],[43.475,12.098],[42.079,13.861],[40.739,14.919],[39.518,15.463],[38.686,18.003],[37.398,18.915],[37.128,21.227],[36.66,22.167],[35.746,22.914],[35.19,24.4],[33.929,26.564],[32.318,29.54],[33.419,26.28],[33.737,24.5],[33.345,23.354],[31.278,19.972],[31.055,19.917]]]},"properties":{"NAME":null,"SUBJECTO":null,"BORDERPRECISION":1}},
{"type":"Feature","geometry":{"type":"Polygon","coordinates":[[[-59.533,13.051],[-59.429,13.165],[-59.659,13.288],[-59.643,13.149],[-59.533,13.051]]]},"properties":{"NAME":null,"SUBJECTO":null,"BORDERPRECISION":1}},
{"type":"Feature","geometry":{"type":"Polygon","coordinates":[[[-68.195,12.221],[-68.364,12.305],[-68.285,12.102],[-68.195,12.221]]]},"properties":{"NAME":null,"SUBJECTO":null,"BORDERPRECISION":1}},
{"type":"Feature","geometry":{"type":"Polygon","coordinates":[[[-61.669,17.085],[-61.794,17.163],[-61.887,17.033],[-61.738,16.99],[-61.669,17.085]]]},"properties":{"NAME":null,"SUBJECTO":null,"BORDERPRECISION":1}},
{"type":"Feature","geometry":{"type":"Polygon","coordinates":[[[-68.966,12.199],[-69.078,12.349],[-69.158,12.311],[-69.062,12.188],[-68.832,12.049],[-68.824,12.16],[-68.966,12.199]]]},"properties":{"NAME":null,"SUBJECTO":null,"BORDERPRECISION":1}},
{"type":"Feature","geometry":{"type":"Polygon","coordinates":[[[-61.475,15.619],[-61.393,15.355],[-61.255,15.285],[-61.304,15.574],[-61.475,15.619]]]},"properties":{"NAME":null,"SUBJECTO":null,"BORDERPRECISION":1}},
{"type":"Feature","geometry":{"type":"Polygon","coordinates":[[[-61.6,12.187],[-61.725,12.172],[-61.79,12.009],[-61.643,12.034],[-61.6,12.187]]]},"properties":{"NAME":null,"SUBJECTO":null,"BORDERPRECISION":1}},
{"type":"Feature","geometry":{"type":"Polygon","coordinates":[[[-61.034,14.829],[-61.232,14.809],[-61.034,14.466],[-60.83,14.57],[-61.034,14.829]]]},"properties":{"NAME":null,"SUBJECTO":null,"BORDERPRECISION":1}},
{"type":"Feature","geometry":{"type":"Polygon","coordinates":[[[-62.171,16.671],[-62.138,16.693],[-62.176,16.809],[-62.237,16.712],[-62.171,16.671]]]},"properties":{"NAME":null,"SUBJECTO":null,"BORDERPRECISION":1}},
{"type":"Feature","geometry":{"type":"Polygon","coordinates":[[[-63.151,18.166],[-62.993,18.227],[-63.058,18.256],[-63.151,18.166]]]},"properties":{"NAME":null,"SUBJECTO":null,"BORDERPRECISION":1}},
{"type":"Feature","geometry":{"type":"Polygon","coordinates":[[[-62.541,17.177],[-62.61,17.191],[-62.611,17.095],[-62.539,17.109],[-62.541,17.177]]]},"properties":{"NAME":null,"SUBJECTO":null,"BORDERPRECISION":1}},
{"type":"Feature","geometry":{"type":"Polygon","coordinates":[[[-61.035,13.97],[-61.068,13.789],[-60.9,13.778],[-60.878,13.957],[-61.035,13.97]]]},"properties":{"NAME":null,"SUBJECTO":null,"BORDERPRECISION":1}},
{"type":"Feature","geometry":{"type":"Polygon","coordinates":[[[-61.452,12.59],[-61.417,12.59],[-61.407,12.607],[-61.443,12.611],[-61.452,12.59]]]},"properties":{"NAME":null,"SUBJECTO":null,"BORDERPRECISION":1}},
{"type":"Feature","geometry":{"type":"Polygon","coordinates":[[[-64.638,17.765],[-64.871,17.775],[-64.889,17.687],[-64.668,17.711],[-64.638,17.765]]]},"properties":{"NAME":null,"SUBJECTO":null,"BORDERPRECISION":1}},
{"type":"Feature","geometry":{"type":"Polygon","coordinates":[[[-61.196,15.945],[-61.275,16.009],[-61.33,15.934],[-61.231,15.877],[-61.196,15.945]]]},"properties":{"NAME":null,"SUBJECTO":null,"BORDERPRECISION":1}},
{"type":"Feature","geometry":{"type":"Polygon","coordinates":[[[-63.012,18.036],[-63.045,18.121],[-63.147,18.072],[-63.012,18.036]]]},"properties":{"NAME":null,"SUBJECTO":null,"BORDERPRECISION":1}},
{"type":"Feature","geometry":{"type":"Polygon","coordinates":[[[-61.874,17.689],[-61.857,17.592],[-61.731,17.547],[-61.743,17.653],[-61.874,17.689]]]},"properties":{"NAME":null,"SUBJECTO":null,"BORDERPRECISION":1}},
{"type":"Feature","geometry":{"type":"Polygon","coordinates":[[[-61.58,12.296],[-61.572,12.316],[-61.583,12.319],[-61.589,12.304],[-61.58,12.296]]]},"properties":{"NAME":null,"SUBJECTO":null,"BORDERPRECISION":1}},
{"type":"Feature","geometry":{"type":"Polygon","coordinates":[[[-61.421,12.513],[-61.491,12.479],[-61.492,12.435],[-61.428,12.454],[-61.421,12.513]]]},"properties":{"NAME":null,"SUBJECTO":null,"BORDERPRECISION":1}},
{"type":"Feature","geometry":{"type":"Polygon","coordinates":[[[-62.693,17.278],[-62.73,17.365],[-62.813,17.409],[-62.864,17.371],[-62.778,17.292],[-62.693,17.278]]]},"properties":{"NAME":null,"SUBJECTO":null,"BORDERPRECISION":1}},
{"type":"Feature","geometry":{"type":"Polygon","coordinates":[[[-61.311,12.735],[-61.348,12.702],[-61.333,12.687],[-61.306,12.714],[-61.311,12.735]]]},"properties":{"NAME":null,"SUBJECTO":null,"BORDERPRECISION":1}},
{"type":"Feature","geometry":{"type":"Polygon","coordinates":[[[-61.197,13.034],[-61.228,13.023],[-61.252,12.989],[-61.239,12.975],[-61.197,13.034]]]},"properties":{"NAME":null,"SUBJECTO":null,"BORDERPRECISION":1}},
{"type":"Feature","geometry":{"type":"Polygon","coordinates":[[[-61.278,13.25],[-61.184,13.13],[-61.123,13.249],[-61.209,13.368],[-61.278,13.25]]]},"properties":{"NAME":null,"SUBJECTO":null,"BORDERPRECISION":1}},
{"type":"Feature","geometry":{"type":"Polygon","coordinates":[[[-64.79,18.331],[-64.704,18.307],[-64.709,18.371],[-64.79,18.331]]]},"properties":{"NAME":null,"SUBJECTO":null,"BORDERPRECISION":1}},
{"type":"Feature","geometry":{"type":"Polygon","coordinates":[[[-64.979,18.347],[-64.878,18.311],[-64.904,18.365],[-64.979,18.347]]]},"properties":{"NAME":null,"SUBJECTO":null,"BORDERPRECISION":1}},
{"type":"Feature","geometry":{"type":"Polygon","coordinates":[[[-61.086,16.305],[-61.037,16.311],[-60.991,16.341],[-61.015,16.35],[-61.086,16.305]]]},"properties":{"NAME":null,"SUBJECTO":null,"BORDERPRECISION":1}},
{"type":"Feature","geometry":{"type":"Polygon","coordinates":[[[-61.292,16.327],[-61.499,16.349],[-61.794,16.242],[-61.695,15.949],[-61.553,16.054],[-61.581,16.205],[-61.292,16.327]]]},"properties":{"NAME":null,"SUBJECTO":null,"BORDERPRECISION":1}},
{"type":"Feature","geometry":{"type":"Polygon","coordinates":[[[-62.841,17.879],[-62.791,17.912],[-62.863,17.93],[-62.841,17.879]]]},"properties":{"NAME":null,"SUBJECTO":null,"BORDERPRECISION":1}},
{"type":"Feature","geometry":{"type":"Polygon","coordinates":[[[-62.972,17.458],[-62.943,17.494],[-62.986,17.52],[-62.998,17.494],[-62.972,17.458]]]},"properties":{"NAME":null,"SUBJECTO":null,"BORDERPRECISION":1}},
{"type":"Feature","geometry":{"type":"Polygon","coordinates":[[[148.562,45.31],[147.895,45.23],[147.112,44.794],[147.291,44.667],[147.623,44.897],[148.562,45.31]]]},"properties":{"NAME":null,"SUBJECTO":null,"BORDERPRECISION":1}},
{"type":"Feature","geometry":{"type":"Polygon","coordinates":[[[142.338,-10.915],[141.679,-12.468],[141.468,-14.757],[141.711,-15.227],[140.801,-17.562],[139.248,-17.432],[135.388,-14.897],[135.831,-13.485],[136.664,-12.625],[135.445,-12.176],[133.559,-11.951],[130.463,-12.759],[129.196,-14.993],[127.963,-14.703],[126.853,-13.784],[125.863,-14.695],[125.156,-14.805],[124.425,-15.658],[124.277,-16.523],[122.738,-16.583],[122.085,-17.398],[122.196,-18.244],[120.872,-19.677],[117.597,-20.758],[116.419,-20.837],[113.625,-22.566],[113.762,-23.481],[113.433,-24.874],[114.183,-26.017],[113.433,-26.572],[113.965,-28.033],[114.63,-28.903],[115.058,-30.804],[115.747,-32.208],[115.647,-33.365],[115.047,-34.422],[116.561,-35.189],[118.207,-35.09],[119.771,-34.12],[123.623,-33.915],[124.248,-33.144],[126.059,-32.434],[127.265,-32.381],[129.185,-31.798],[131.28,-31.635],[131.993,-32.066],[133.837,-32.342],[135.153,-34.05],[135.528,-35.055],[137.457,-33.314],[139.368,-35.614],[140.012,-37.642],[140.652,-38.164],[143.365,-38.97],[144.97,-38.066],[145.934,-38.881],[146.821,-38.841],[148.037,-38.098],[149.504,-37.929],[149.985,-37.347],[150.222,-35.694],[150.762,-35.253],[151.364,-33.521],[152.176,-32.877],[152.972,-31.418],[152.94,-30.699],[153.493,-28.841],[152.946,-27.341],[153.069,-26.228],[151.73,-24.157],[150.802,-23.6],[150.754,-22.812],[149.557,-22.433],[149.101,-21.06],[148.19,-20.172],[146.322,-19.082],[145.869,-17.195],[145.326,-16.49],[145.184,-15.048],[143.743,-14.466],[143.173,-12.121],[142.338,-10.915]]]},"properties":{"NAME":"Aboriginal tribes","SUBJECTO":"Aboriginal tribes","BORDERPRECISION":1}},
{"type":"Feature","geometry":{"type":"Polygon","coordinates":[[[-73.117,-16.457],[-71.612,-17.221],[-70.584,-18.083],[-70.209,-19.067],[-70.111,-21.748],[-70.573,-23.166],[-70.398,-25.249],[-70.935,-27.727],[-71.43,-29.1],[-71.695,-30.854],[-71.416,-32.753],[-71.616,-33.706],[-72.629,-35.646],[-73.144,-37.156],[-73.673,-37.501],[-73.194,-39.565],[-73.905,-40.839],[-72.438,-42.305],[-72.999,-43.334],[-73.571,-46.265],[-74.312,-48.745],[-74.075,-50.473],[-73.408,-52.024],[-71.872,-53.696],[-69.483,-52.361],[-69.041,-50.562],[-67.833,-49.968],[-67.578,-49.059],[-66.078,-48.142],[-65.776,-47.23],[-67.328,-46.532],[-66.695,-45.131],[-65.436,-44.89],[-65.307,-43.601],[-63.6,-42.704],[-64.992,-42.193],[-64.939,-40.827],[-62.964,-41.137],[-62.068,-39.556],[-61.361,-39.031],[-59.515,-38.875],[-57.809,-38.386],[-56.698,-36.944],[-57.419,-35.997],[-57.348,-34.508],[-56.338,-34.995],[-54.074,-34.648],[-52.351,-32.675],[-52.042,-31.557],[-50.582,-30.416],[-48.937,-28.698],[-48.564,-27.681],[-48.725,-25.426],[-46.206,-23.883],[-45.459,-23.856],[-44.561,-22.99],[-41.958,-22.921],[-40.984,-22.086],[-40.933,-21.279],[-39.691,-19.409],[-39.666,-18.227],[-39.142,-17.775],[-38.948,-16.002],[-39.126,-14.325],[-38.799,-12.627],[-38.266,-12.887],[-37.187,-10.845],[-35.599,-9.628],[-34.891,-7.612],[-35.464,-5.268],[-37.181,-4.954],[-38.786,-3.604],[-40.231,-2.851],[-42.316,-2.818],[-43.334,-2.432],[-44.222,-2.777],[-44.796,-1.736],[-47.237,-0.68],[-48.043,-0.816],[-49.221,-2.108],[-50.643,-1.882],[-51.529,-0.429],[-49.884,1.214],[-50.688,2.216],[-51.209,4.071],[-53.027,5.427],[-54.286,5.882],[-56.746,6.003],[-58.575,6.984],[-58.617,7.499],[-59.834,8.44],[-61.29,8.771],[-61.531,9.851],[-64.068,10.627],[-64.884,10.136],[-66.478,10.679],[-67.98,10.542],[-68.695,11.38],[-69.748,11.533],[-71.688,10.769],[-72.38,11.81],[-73.362,11.325],[-74.219,11.368],[-75.45,10.628],[-75.703,9.426],[-76.764,8.693],[-78.266,9.386],[-79.5,9.638],[-80.962,8.865],[-82.23,9.047],[-83.914,11.251],[-83.662,13.705],[-83.314,14.768],[-84.65,15.933],[-88.664,15.726],[-88.3,17.635],[-87.877,18.381],[-87.651,20.19],[-86.936,20.976],[-87.201,21.529],[-88.334,21.59],[-90.278,21.141],[-90.935,19.382],[-91.702,18.823],[-94.242,18.24],[-96.012,18.929],[-97.504,21.189],[-97.882,22.333],[-97.823,24.208],[-97.26,25.811],[-97.632,27.228],[-96.831,28.158],[-94.142,29.69],[-92.117,29.542],[-90.779,29.109],[-89.233,30.406],[-87.775,30.263],[-86.389,30.473],[-85.305,29.664],[-83.886,30.048],[-82.647,28.907],[-82.841,27.838],[-81.098,25.125],[-80.314,25.244],[-80.05,26.551],[-80.605,28.561],[-81.512,30.727],[-80.581,32.497],[-76.622,34.763],[-75.729,35.882],[-76.215,37.943],[-75.668,37.898],[-74.153,39.765],[-73.741,40.977],[-70.302,41.759],[-70.868,42.871],[-70.216,43.8],[-67.169,44.711],[-65.713,43.56],[-61.032,45.379],[-64.535,46.272],[-65.213,48.121],[-64.952,49.207],[-68.341,48.546],[-66.373,50.314],[-61.64,50.277],[-60.138,50.412],[-58.524,51.379],[-56.964,51.488],[-55.659,52.187],[-55.881,53.352],[-57.515,54.466],[-59.694,55.154],[-61.928,56.273],[-62.887,58.656],[-64.671,60.181],[-65.861,58.795],[-67.772,58.249],[-69.214,58.748],[-70.028,60.883],[-73.395,62.355],[-75.695,62.216],[-77.362,62.517],[-77.507,60.415],[-78.337,58.551],[-76.772,57.663],[-76.439,56.81],[-77.234,55.607],[-79.545,54.692],[-78.491,52.256],[-79.594,51.266],[-81.747,52.17],[-82.341,52.981],[-82.202,54.969],[-84.468,55.167],[-87.467,55.912],[-88.767,56.738],[-90.445,57.144],[-92.483,56.977],[-93.074,58.551],[-94.684,58.878],[-94.753,59.95],[-93.423,61.858],[-90.774,63.302],[-87.435,64.569],[-85.987,66.163],[-83.139,66.373],[-81.295,67.499],[-82.687,68.697],[-81.48,69.189],[-84.314,69.826],[-86.488,67.378],[-89.736,68.534],[-93.271,71.559],[-95.411,71.859],[-96.7,70.838],[-96.127,69.941],[-92.956,69.084],[-96.208,68.074],[-101.913,67.705],[-105.636,68.355],[-107.662,67.963],[-112.503,67.693],[-115.285,68.892],[-117.832,69.008],[-122.326,69.884],[-125.974,69.43],[-127.352,70.38],[-131.673,69.276],[-135.439,69.526],[-137.729,69.016],[-143.308,70.197],[-145.273,70.116],[-149.286,70.539],[-156.905,71.346],[-160.24,70.858],[-162.879,69.999],[-164.067,69.065],[-166.844,68.405],[-163.739,67.218],[-161.936,67.088],[-162.275,66.071],[-164.463,66.596],[-168.18,65.694],[-166.586,64.73],[-163.025,64.442],[-161.291,64.964],[-161.133,63.563],[-165.431,62.43],[-165.898,61.27],[-164.027,59.798],[-162.378,60.163],[-162.004,58.827],[-158.291,58.73],[-157.665,57.604],[-160.457,56.2],[-159.077,55.992],[-156.685,57.401],[-154.649,58.076],[-154.282,59.249],[-151.783,59.995],[-151.388,59.213],[-149.326,60.027],[-148.493,61.064],[-144.406,60.093],[-139.573,59.9],[-137.577,58.604],[-134.123,58.239],[-131.767,56.01],[-131.191,56.035],[-130.004,53.938],[-127.556,52.168],[-127.247,50.968],[-124.939,50.596],[-124.795,50.035],[-122.606,48.835],[-122.826,48.023],[-124.675,48.386],[-123.995,45.764],[-124.63,43.014],[-124.153,41.58],[-124.365,40.334],[-123.796,39.03],[-121.932,37.009],[-121.927,36.338],[-120.677,35.189],[-120.529,34.508],[-118.604,34.096],[-117.497,33.325],[-116.705,31.591],[-115.602,29.685],[-114.067,28.423],[-114.478,27.244],[-112.411,26.193],[-112.166,25.011],[-110.225,23.4],[-110.205,24.315],[-110.798,24.88],[-112.87,28.335],[-114.683,30.143],[-114.839,31.815],[-113.052,31.139],[-112.654,29.919],[-111.692,28.496],[-110.604,27.856],[-110.382,27.214],[-109.132,26.289],[-108.013,24.981],[-105.54,22.285],[-104.948,19.438],[-103.494,18.354],[-101.993,18.027],[-101.221,17.418],[-98.856,16.597],[-97.881,16.052],[-96.333,15.75],[-95.13,16.299],[-94.075,16.111],[-91.516,14.059],[-87.949,13.172],[-86.014,11.368],[-85.778,10.138],[-85.089,9.583],[-83.615,9.152],[-82.956,8.257],[-81.664,8.165],[-80.814,7.27],[-79.717,8.883],[-79.068,9.034],[-78.184,8.413],[-78.265,7.886],[-77.4,6.67],[-77.5,5.514],[-77.106,3.792],[-77.802,2.577],[-78.614,2.119],[-75.898,0.846],[-77.121,-0.484],[-77.174,-1.281],[-79.76,-2.786],[-81.418,-4.675],[-80.612,-6.37],[-80.066,-6.756],[-78.262,-9.742],[-76.388,-9.706],[-74.617,-9.978],[-73.364,-10.931],[-72.166,-12.947],[-72.003,-14.309],[-72.22,-15.426],[-73.117,-16.457]],[[-87.682,42.023],[-87.908,43.192],[-86.72,45.867],[-85.382,46.075],[-84.952,45.408],[-86.002,44.917],[-86.514,43.681],[-86.23,42.617],[-87.682,42.023]],[[-83.927,46.087],[-80.807,45.955],[-79.918,44.967],[-81.095,44.799],[-81.808,43.318],[-83.386,44.313],[-83.927,46.087]],[[-79.564,42.387],[-81.811,41.495],[-81.439,42.587],[-79.564,42.387]],[[-89.236,48.359],[-88.095,49.005],[-86.384,48.725],[-85.027,47.94],[-84.442,46.817],[-87.273,46.512],[-87.76,46.864],[-90.277,46.625],[-91.15,47.368],[-89.236,48.359]]]},"properties":{"NAME":null,"SUBJECTO":null,"BORDERPRECISION":1}},
{"type":"Feature","geometry":{"type":"Polygon","coordinates":[[[-4.153,53.226],[-4.277,53.398],[-4.567,53.273],[-4.351,53.124],[-4.153,53.226]]]},"properties":{"NAME":null,"SUBJECTO":null,"BORDERPRECISION":1}},
{"type":"Feature","geometry":{"type":"Polygon","coordinates":[[[-5.104,55.439],[-5.155,55.673],[-5.4,55.601],[-5.104,55.439]]]},"properties":{"NAME":null,"SUBJECTO":null,"BORDERPRECISION":1}},
{"type":"Feature","geometry":{"type":"Polygon","coordinates":[[[-6.122,55.879],[-6.327,55.589],[-6.025,55.681],[-6.122,55.879]]]},"properties":{"NAME":null,"SUBJECTO":null,"BORDERPRECISION":1}},
{"type":"Feature","geometry":{"type":"Polygon","coordinates":[[[-5.947,55.83],[-5.746,56.064],[-5.968,56.024],[-6.079,55.906],[-5.947,55.83]]]},"properties":{"NAME":null,"SUBJECTO":null,"BORDERPRECISION":1}},
{"type":"Feature","geometry":{"type":"Polygon","coordinates":[[[-7.467,56.941],[-7.376,56.979],[-7.446,57.056],[-7.554,56.966],[-7.467,56.941]]]},"properties":{"NAME":null,"SUBJECTO":null,"BORDERPRECISION":1}},
{"type":"Feature","geometry":{"type":"Polygon","coordinates":[[[-7.223,57.337],[-7.425,57.382],[-7.381,57.109],[-7.23,57.095],[-7.223,57.337]]]},"properties":{"NAME":null,"SUBJECTO":null,"BORDERPRECISION":1}},
{"type":"Feature","geometry":{"type":"Polygon","coordinates":[[[-7.269,57.399],[-7.205,57.461],[-7.351,57.489],[-7.388,57.424],[-7.269,57.399]]]},"properties":{"NAME":null,"SUBJECTO":null,"BORDERPRECISION":1}},
{"type":"Feature","geometry":{"type":"Polygon","coordinates":[[[-7.189,57.687],[-7.477,57.562],[-7.154,57.509],[-7.189,57.687]]]},"properties":{"NAME":null,"SUBJECTO":null,"BORDERPRECISION":1}},
{"type":"Feature","geometry":{"type":"Polygon","coordinates":[[[-7.006,57.881],[-6.994,57.919],[-7.074,57.896],[-7.006,57.881]]]},"properties":{"NAME":null,"SUBJECTO":null,"BORDERPRECISION":1}},
{"type":"Feature","geometry":{"type":"Polygon","coordinates":[[[-6.802,58.203],[-6.794,58.218],[-6.854,58.25],[-6.873,58.206],[-6.802,58.203]]]},"properties":{"NAME":null,"SUBJECTO":null,"BORDERPRECISION":1}},
{"type":"Feature","geometry":{"type":"Polygon","coordinates":[[[-6.204,58.356],[-7.032,58.238],[-6.474,57.94],[-6.204,58.356]]]},"properties":{"NAME":null,"SUBJECTO":null,"BORDERPRECISION":1}},
{"type":"Feature","geometry":{"type":"Polygon","coordinates":[[[-2.918,58.732],[-2.877,58.82],[-3.037,58.818],[-2.918,58.732]]]},"properties":{"NAME":null,"SUBJECTO":null,"BORDERPRECISION":1}},
{"type":"Feature","geometry":{"type":"Polygon","coordinates":[[[-3.231,58.776],[-3.136,58.804],[-3.336,58.927],[-3.431,58.871],[-3.231,58.776]]]},"properties":{"NAME":null,"SUBJECTO":null,"BORDERPRECISION":1}},
{"type":"Feature","geometry":{"type":"Polygon","coordinates":[[[-2.793,58.951],[-3.077,59.122],[-3.195,58.911],[-2.793,58.951]]]},"properties":{"NAME":null,"SUBJECTO":null,"BORDERPRECISION":1}},
{"type":"Feature","geometry":{"type":"Polygon","coordinates":[[[-2.681,59.196],[-2.621,59.236],[-2.496,59.245],[-2.414,59.314],[-2.593,59.291],[-2.681,59.196]]]},"properties":{"NAME":null,"SUBJECTO":null,"BORDERPRECISION":1}},
{"type":"Feature","geometry":{"type":"Polygon","coordinates":[[[-2.89,59.295],[-3.049,59.329],[-3.003,59.264],[-2.972,59.287],[-2.89,59.295]]]},"properties":{"NAME":null,"SUBJECTO":null,"BORDERPRECISION":1}},
{"type":"Feature","geometry":{"type":"Polygon","coordinates":[[[-1.296,60.491],[-1.32,60.356],[-1.655,60.226],[-1.126,60.152],[-1.041,60.447],[-1.296,60.491]]]},"properties":{"NAME":null,"SUBJECTO":null,"BORDERPRECISION":1}},
{"type":"Feature","geometry":{"type":"Polygon","coordinates":[[[-1.029,60.496],[-0.991,60.72],[-1.177,60.637],[-1.029,60.496]]]},"properties":{"NAME":null,"SUBJECTO":null,"BORDERPRECISION":1}},
{"type":"Feature","geometry":{"type":"Polygon","coordinates":[[[-0.82,60.689],[-0.768,60.829],[-0.939,60.794],[-0.966,60.688],[-0.82,60.689]]]},"properties":{"NAME":null,"SUBJECTO":null,"BORDERPRECISION":1}},
{"type":"Feature","geometry":{"type":"Polygon","coordinates":[[[-6.707,61.937],[-6.719,62.029],[-7.192,62.308],[-7.232,62.172],[-6.707,61.937]]]},"properties":{"NAME":null,"SUBJECTO":null,"BORDERPRECISION":1}},
{"type":"Feature","geometry":{"type":"Polygon","coordinates":[[[-4.778,54.056],[-4.394,54.186],[-4.527,54.367],[-4.778,54.056]]]},"properties":{"NAME":null,"SUBJECTO":null,"BORDERPRECISION":1}},
{"type":"Feature","geometry":{"type":"Polygon","coordinates":[[[18.206,56.912],[18.712,57.242],[18.809,57.704],[18.111,57.519],[18.206,56.912]]]},"properties":{"NAME":null,"SUBJECTO":null,"BORDERPRECISION":1}},
{"type":"Feature","geometry":{"type":"Polygon","coordinates":[[[52.895,46.933],[54.096,49.502],[52.79,52.077],[52.379,51.954],[49.9,53.575],[47.157,53.749],[34.269,51.989],[33.536,52.046],[25.248,49.589],[28.732,44.543],[29.63,45.75],[30.833,46.577],[33.639,45.927],[33.395,44.6],[35.067,44.862],[34.907,46.273],[37.422,47.077],[37.97,46.441],[37.474,44.692],[38.656,44.338],[44.682,43.349],[47.794,42.839],[46.846,44.446],[47.556,45.453],[49.535,46.542],[51.369,47.09],[52.895,46.933]]]},"properties":{"NAME":"Yamnaya culture","SUBJECTO":"Yamnaya culture","BORDERPRECISION":1}},
{"type":"Feature","geometry":{"type":"Polygon","coordinates":[[[35.716,34.312],[34.501,31.621],[33.558,30.968],[32.648,29.852],[34.058,27.79],[34.886,28.357],[37.218,25.167],[37.201,24.658],[38.329,23.835],[39.102,22.4],[39.167,21.219],[39.764,20.407],[40.694,19.869],[41.629,18.047],[42.764,16.645],[42.796,15.47],[43.841,12.664],[44.964,12.825],[45.826,13.405],[46.601,13.401],[49.334,14.633],[52.135,15.687],[52.894,16.61],[55.195,17.149],[55.561,17.937],[57.839,19.035],[57.806,20.172],[58.512,20.421],[59.837,22.279],[58.628,23.458],[57.146,23.982],[56.015,25.772],[54.347,24.154],[51.586,24.003],[50.778,24.471],[49.937,25.956],[50.122,26.738],[48.855,27.523],[48.129,29.268],[47.614,29.272],[41.95,32.209],[40.956,33.435],[37.238,33.85],[35.716,34.312]]]},"properties":{"NAME":"Semites","SUBJECTO":"Semites","BORDERPRECISION":1}},
{"type":"Feature","geometry":{"type":"MultiPolygon","coordinates":[[[[41.976,37.684],[42.24,38.452],[44.272,37.848],[46.536,35.848],[45.615,35.163],[49.307,31.816],[54.01,30.359],[56.564,29.678],[57.841,28.997],[58.352,27.464],[58.369,25.548],[61.344,25.027],[63.018,25.157],[63.293,26.878],[64.813,28.514],[67.619,28.982],[69.022,31.087],[70.776,32.022],[73.699,32.139],[78.843,30.736],[79.194,30.034],[78.843,28.631],[72.296,28.982],[70.308,28.047],[69.724,26.994],[70.074,25.475],[72.53,24.422],[73.231,23.721],[72.696,22.129],[73.11,20.687],[72.759,20.058],[73.409,16.559],[74.209,14.753],[80.136,14.489],[80.3,15.646],[84.263,18.456],[85.113,19.442],[86.119,19.807],[87.641,21.563],[90.157,21.734],[91.41,22.721],[92.176,20.887],[93.334,20.025],[94.054,19.061],[94.465,17.264],[94.143,16.215],[95.33,15.678],[96.469,16.513],[97.573,16.445],[97.823,14.616],[98.486,13.112],[98.738,11.435],[98.633,10.101],[98.177,8.6],[99.025,7.871],[100.139,6.177],[100.664,3.904],[101.336,2.781],[103.428,1.381],[104.176,1.389],[103.308,3.026],[103.342,4.805],[101.56,6.74],[100.615,6.979],[100.132,8.532],[99.071,9.898],[99.895,12.079],[100.872,12.679],[101.919,12.585],[102.658,12.066],[103.04,10.898],[104.979,9.981],[104.742,8.494],[106.482,9.552],[106.704,10.448],[107.412,10.367],[109.073,11.635],[109.307,12.906],[108.786,15.091],[108.236,16.08],[106.433,17.55],[105.533,18.844],[105.843,19.702],[106.807,20.905],[107.9,21.479],[109.117,21.399],[110.077,20.867],[111.086,21.479],[112.75,21.756],[113.717,22.482],[116.341,22.913],[118.813,24.849],[119.47,25.772],[119.429,26.591],[120.352,27.177],[121.359,28.386],[121.77,29.834],[121.606,31.828],[120.661,32.543],[119.974,34.135],[119.021,34.692],[120.139,36.195],[121.847,36.86],[120.658,37.736],[119.599,37.117],[118.875,37.949],[117.589,38.284],[117.753,39.203],[118.978,39.224],[121.011,40.851],[122.108,40.354],[122.027,39.256],[124.104,39.885],[125.296,39.364],[124.736,38.28],[126.21,37.754],[126.786,37.074],[126.225,35.164],[127.359,34.804],[129.06,35.17],[129.25,37.009],[128.451,38.255],[127.277,39.222],[127.672,39.866],[129.478,40.682],[129.641,41.656],[131.065,42.749],[132.182,43.195],[132.953,42.67],[134.139,42.993],[136.034,44.398],[137.721,45.997],[140.081,48.503],[141.121,53.052],[140.102,53.802],[138.417,54.092],[137.979,53.465],[136.351,53.701],[136.492,54.455],[134.985,54.854],[137.229,55.983],[140.587,58.239],[142.846,59.273],[148.416,59.097],[149.045,59.587],[151.14,59.44],[152.504,58.769],[153.924,58.922],[154.316,59.983],[157.098,61.633],[158.841,61.784],[160.645,60.718],[164.138,62.533],[163.329,60.695],[159.649,58.954],[158.326,58.027],[156.777,57.58],[155.628,56.268],[155.465,54.92],[156.696,50.958],[157.898,51.666],[158.461,52.826],[159.897,53.241],[159.931,54.086],[162.008,54.738],[161.503,55.287],[162.512,57.033],[161.804,58.102],[163.389,59.814],[165.78,60.354],[170.337,60.277],[173.481,61.601],[179.288,62.815],[178.147,64.157],[180,64.953],[180,65.052],[180,65.311],[180,65.382],[180,65.963],[180,66.963],[180,67.963],[180,68.92],[175.611,69.779],[170.452,70.019],[170.833,68.922],[169.389,68.717],[167.32,69.659],[161.961,69.528],[159.444,69.765],[158.409,70.814],[156.043,70.987],[152.134,70.664],[146.915,72.202],[141.294,72.787],[137.63,71.075],[132.284,71.661],[130.779,70.678],[126.216,72.382],[125.717,73.398],[120.579,72.835],[118.46,73.519],[108.34,73.691],[113.625,75.273],[113.533,76.094],[108.244,76.646],[103.393,77.558],[99.467,75.967],[89.285,75.466],[86.958,74.782],[87.691,73.9],[80.464,73.314],[79.223,72.271],[73.217,71.458],[74.25,70.573],[73.915,69.154],[74.742,67.686],[72.209,66.173],[70.84,66.551],[72.838,67.646],[72.68,70.824],[71.798,71.432],[72.714,72.77],[69.343,72.834],[68.316,71.635],[66.818,71.105],[67.422,70.223],[66.584,68.886],[62.281,69.705],[57.024,68.449],[53.889,68.787],[48.081,67.562],[45.863,68.383],[43.822,68.327],[44.384,66.612],[42.211,66.41],[39.951,65.581],[39.193,64.511],[37.411,63.749],[35.082,64.288],[34.293,65.396],[35.772,66.259],[39.19,66.039],[41.255,66.937],[40.826,67.66],[35.437,69.15],[29.729,69.698],[30.799,70.308],[28.308,70.949],[24.571,70.741],[23.204,69.943],[20.158,69.748],[17.407,68.772],[13.169,66.458],[12.112,65.13],[9.832,63.684],[7.088,62.91],[5.149,61.741],[5.096,60.264],[5.806,59.949],[5.615,58.455],[8.154,58.09],[10.549,59.379],[13.302,55.301],[14.653,56.121],[15.771,56.033],[16.744,58.312],[19.037,59.863],[17.146,60.953],[17.065,61.538],[18.487,62.981],[20.701,63.818],[20.921,64.714],[22.646,65.935],[25.252,65.417],[24.47,64.636],[21.034,62.477],[21.56,60.512],[23.665,59.836],[25.581,60.262],[28.435,60.337],[27.702,59.298],[25.721,59.46],[23.416,59.119],[24.346,57.16],[21.677,57.464],[20.965,56.609],[21.137,54.845],[18.279,54.724],[14.473,53.877],[12.653,54.321],[11.408,53.859],[9.421,54.976],[10.147,55.765],[8.183,56.431],[8.848,53.75],[7.166,53.592],[4.641,52.756],[4.264,52.071],[1.589,50.822],[1.275,50.004],[0.033,49.334],[-1.892,49.526],[-3.955,47.904],[-2.005,47.043],[-1.075,46.015],[-1.561,43.524],[-3.417,43.376],[-7.636,43.721],[-9.271,43.049],[-8.644,42.42],[-8.694,40.992],[-9.549,38.775],[-8.854,38.5],[-8.667,37.121],[-6.632,37.022],[-5.661,36.008],[-4.447,36.722],[-2.239,36.728],[-0.918,37.57],[0.173,38.738],[-0.395,39.434],[0.879,41.022],[3.129,41.857],[3.002,42.771],[4.078,43.487],[6.523,43.151],[8.897,44.437],[9.909,44.11],[10.743,42.851],[12.642,41.531],[13.797,41.193],[15.666,40.092],[17.084,40.525],[14.093,42.61],[13.601,43.535],[12.345,44.301],[12.176,45.214],[13.156,45.727],[13.895,44.759],[14.946,44.927],[15.412,43.935],[16.992,43.323],[19.607,41.762],[19.369,40.26],[20.029,39.814],[21.228,37.905],[22.639,37.492],[23.556,38.352],[23.169,38.667],[22.602,38.856],[22.871,39.024],[22.72,39.287],[22.602,40.397],[23.886,40.733],[28.828,40.915],[27.502,42.516],[28.446,43.476],[28.732,44.543],[25.248,49.589],[33.536,52.046],[34.269,51.989],[47.157,53.749],[49.9,53.575],[52.379,51.954],[52.79,52.077],[54.096,49.502],[52.895,46.933],[53.149,45.957],[51.513,45.373],[50.874,44.626],[51.171,43.718],[52.52,42.073],[53.985,42.106],[54.818,40.88],[53.257,40.765],[52.845,40.18],[54.071,38.897],[53.8,36.679],[51.796,36.432],[50.561,36.686],[48.837,37.511],[48.825,38.31],[49.807,40.581],[47.794,42.839],[44.682,43.349],[38.656,44.338],[41.41,42.788],[41.68,41.793],[40.361,40.963],[38.651,40.922],[36.383,41.238],[35.958,41.686],[33.556,41.983],[30.745,41.04],[26.128,39.879],[26.708,39.182],[27.16,37.36],[30.473,36.188],[31.371,36.712],[33.171,35.971],[34.485,36.627],[36.082,36.622],[38.089,37.425],[40.473,37.851],[41.976,37.684]],[[75.001,50.674],[76.658,51.763],[80.91,53.038],[87.117,55.929],[93.07,56.27],[98.767,55.419],[101.913,53.974],[100.382,52.273],[97.406,51.168],[93.325,48.021],[90.577,47.206],[85.785,46.938],[82.934,46.905],[79.493,46.955],[74.381,47.572],[75.001,50.674]],[[59.102,38.475],[60.06,39.08],[61.134,38.985],[62.584,38.284],[62.097,37.02],[60.394,36.338],[58.844,36.777],[58.416,37.764],[59.102,38.475]]],[[[-3.563,50.361],[-3.521,50.617],[0.192,50.731],[1.692,52.311],[-0.319,53.579],[-1.719,55.454],[-2.742,55.957],[-2.15,57.572],[-5.763,57.62],[-5.633,55.94],[-3.577,54.924],[-2.914,53.267],[-4.318,53.091],[-4.281,51.187],[-3.563,50.361]]],[[[14.216,37.049],[15.027,36.745],[15.387,38.206],[12.454,37.766],[14.216,37.049]]]]},"properties":{"NAME":null,"SUBJECTO":null,"BORDERPRECISION":1}}
]}